OBJECTID,LONGITUDE,LATITUDE,POI_NAME,Address_1,Address_2,CITY,STATE,ZIP,RESERVED_1,RESERVED_2,RESERVED_3,COUNTY,POI_TYPE
16,34.062461193080196,-84.66066693060827,Acworth Community Health Center,4489 Acworth Industrial Drive,,Acworth,GA,30101,,,,,
17,33.76369658417855,-84.50962293622689,Adamsville Health Center,3700 Martin Luther King Jr. Dr. SW,,Atlanta,GA,30331,,,,,
18,33.756232722836614,-84.38005681004728,Aldredge Health Center,99 Jesse Hill  Jr. Drive,,Atanta,GA,30303,,,,,
19,33.77199752242501,-84.42782102932307,Asa G. Yancey Sr. Health Center,"1247 Donald Lee Hollowell Prkwy, NW",,Atlanta,GA,30318,,,,,
20,34.1785381855305,-84.50425634389353,Bethesda Community Clinic Inc,107 Mountain Broook Drive Suite 100,,Canton,GA,30115,,,,,
21,34.13071527682473,-83.98746174821042,Buford Public Health Clinic,2755 Sawnee Avenue NE,,Buford,GA,30518,,,,,
22,33.74141725163247,-84.39840884786423,Center for Black Womens Wellness,"477 Windsor Street, Suite 309",,Atlanta,GA,30312,,,,,
23,33.749125947019365,-84.38936378088493,Central Presbyterian - Central Outreach and Advocacy Center,201 South Washington Street SW,,Atlanta,GA,30303,,,,,
24,33.76165778617491,-84.37161916718014,Center for Health and Rehabilitation-Northeast Health Center,"265 Boulevard, NE",,Atlanta,GA,30308,,,,,
25,34.19181971232746,-84.49233612559914,Cherokee County Health Department-Administrative Offices,1219 Univeter Road,,Canton,GA,30115,,,,,
26,34.115241881774466,-84.51257325914827,Cherokee County Health Dept-Woodstock Health Center,7545 North Main Street,,Woodstock,GA,30188,,,,,
27,33.553209601236574,-84.35461462665779,Clayton County Board Of Health,1117 Battle Creek Road,,Jonesboro,GA,30236,,,,,
28,33.69072729372982,-84.26768783080428,Clifton Springs Health Center,3110 Clifton Springs Road,,Decatur,GA,30034,,,,,
29,33.912521412868614,-84.58223370547205,Cobb and Douglas Public Health -Adminsitrative offices,1650 County Services Parkway,,Marietta,GA,30008,,,,,
30,33.65092353122657,-84.45194855962552,College Park Regional Health Center,1920 John Wesley Ave.,,College Park,GA,30337,,,,,
31,33.801896446675926,-84.63941515685707,Community Health Center,"6289 Veterans Memorial Highway
Suite 12-C",,Austell,GA,30168,,,,,
32,33.788512954484304,-84.27915630224425,DeKalb County Board of Health Admin - Richardson Building,445 Winn Way,,Decatur,GA,30030,,,,,
33,33.79187156629786,-84.28358164609773,DeKalb Medical Center - Wellness on Wheels,2701 North Decatur Road,,Decatur,GA,30033,,,,,
34,33.74252311682477,-84.75186815171116,Douglas County Health Department,6770 Selman Drive,,Douglasville,GA,30134,,,,,
35,33.96600101823162,-84.40596942690638,East Cobb Health Center,4938 Lower Roswell Road,,Marietta,GA,30068,,,,,
36,33.74178196015663,-84.12381628126496,East DeKalb Health Center,2277 South Stone Mountain-Lithonia Rd,,Lithonia,GA,30058,,,,,
37,33.75602337693118,-84.38038429527518,Emma I Darnell Geriatrics Center - Grady Hospital,"80 Jesse Hill Jr. Drive, S.E., Ste 1H004",,Atlanta,GA,30303,,,,,
38,33.81071369108378,-84.47685689597012,Family Health Center at Bolton Village,"2011 Bolton Road, Suite 104",,Atlanta,GA,30318,,,,,
39,33.971158814744,-84.55218783444656,Family Health Center at Cobb,805 Campbell Hill Street,,Marietta,GA,30060,,,,,
40,33.80551679440407,-84.33575374817173,Emory Alzheimer's Disease Research Center,"Wesley Woods Outpatient Clinic
1821 Clifton Road",,Atlanta,GA,30329,,,,,
41,33.44761666033952,-84.45603636696472,Fayette County Health Department,"140 Stonewall Ave., West; Suite 107",,Fayetteville,GA,30214,,,,,
42,33.4498487757819,-84.50887858966792,Fayette Care Clinic,"1260 Highway 54 West, Suite 101",,Fayetteville,GA,30214,,,,,
43,33.92013833373636,-84.1659802051517,Four Corners Primary Care Center,"5030 Georgia Belle Court
Suite 2066",,Norcross,GA,30093,,,,,
44,33.756232722836614,-84.38005681004728,Fulton County Department of Health and Wellness,"99 Jesse Hill Jr. Drive, S.E.
Suite 409 A",,Atlanta,GA,30303,,,,,
45,33.77504883658298,-84.29677926797063,Georgia Charitable Care Network,"One West Court Square, Suite 750",,Decatur,GA,30030,,,,,
46,34.24735437471139,-84.48938245582787,Georgia Highlands Medical Services Inc,220 Oakside Lane,,Canton,GA,30114,,,,,
47,33.77334180332991,-84.42098952412107,Good Samaritan Health Center,1015 Donald Lee Hollowell Parkway,,Atlanta,GA,30318,,,,,
48,33.91410869745965,-84.55689056889838,Good Samaritan Health Center of Cobb,1605 Roberta Drive,,Marietta,GA,30008,,,,,
49,33.94167381416429,-84.1269738540658,Good Samaritan Health Center of Gwinnett,3700 Club Drive,,Lawrenceville,GA,30044,,,,,
50,33.58110156618204,-84.3375270276764,Good Shepherd Clinic,6392 Murphy Drive,,Morrow,GA,30260,,,,,
51,33.67962473093411,-84.44042717406711,Grady Health Center - East Point,1595 West Cleveland Avenue,,East Point,GA,30344,,,,,
52,33.82760178677847,-84.34687035876061,Grady Lindbergh Womens Health Center,"2695 Buford Highway NE, Suite 200",,Atlanta,GA,30324,,,,,
53,33.75167225925918,-84.38294364607304,"Grady Medical Clinic - Clinic Building-1J, 1K, 1L Areas","80 Jesse Hill Jr. Drive, S.E.",,Atlanta,GA,30303,,,,,
54,33.87142635482343,-84.30931882427006,Grady North DeKalb Health Center,3807 Clairmont Drive N.E.,,Chamblee,GA,30341,,,,,
55,33.71829952402044,-84.36836936117794,Grant Park Family Health Center,1340 Boulevard SE,,Atlanta,GA,30315,,,,,
56,33.955986143580844,-84.02982969205647,Gwinnett County Board of Health - East Metro Health District,2570 Riverside Parkway,,Lawrenceville,GA,30046,,,,,
57,33.85662489937579,-84.02901353626413,Gwinnett Community Clinic,"Heritage Eastside Medical Center
2160 Fountain Drive",,Snellville,GA,30078,,,,,
58,33.511852297859036,-84.22599485489093,Hands of Hope Medical Clinic,1010 Hospital Drive; Building B,,Stockbridge,GA,30281,,,,,
59,33.77395587246167,-84.35764480879499,Harriet Tubman Free Womens Clinic - The Open Door Community,910 Ponce de Leon Avenue,,Atlanta,GA,30306,,,,,
60,33.42433592988141,-84.16806265491152,Henry County Health Department- Administrative Offices,135 Henry Parkway,,McDonough,GA,30253,,,,,
61,33.954055121692306,-83.99686638073842,Hope Clinic,121 Langley Drive,,Lawrenceville,GA,30046,,,,,
62,33.75326635041836,-84.47232932718606,Health Education Assessment & Leadership (HEAL),"2600 Martin Luther King, Jr. Drive",,Atlanta,GA,30314,,,,,
63,33.74727361973544,-84.32669919545668,Kirkwood Family Medicine,"1863 Memorial Drive, SE",,Atlanta,GA,30317,,,,,
64,33.70351267490673,-84.3774981608322,Lakewood Health Center,1853 Jonesboro Road  S.E.,,Atlanta,GA,30315,,,,,
65,33.939911979907095,-83.98204525826787,Lawrenceville Health Center - East Metro Health District,"455 Grayson Highway , Suite 300",,Lawrenceville,GA,30046,,,,,
66,33.752994453391295,-84.38153123272792,Maloof Clinic at Grady Hospital,"56 Jesse Hill Jr. Drive, SE",,Atlanta,GA,30303,,,,,
67,33.912521412868614,-84.58223370547205,Marietta Health Center,1650 County Services Parkway,,Marietta,GA,30008,,,,,
68,33.997174666184435,-84.35172290982467,Mary Hall Freedom House,200 Hanover Park Road,,Atlanta,GA,30350,,,,,
69,33.67965343589913,-84.43811708117886,Morehouse School of Medicine - Comprehensive Family Healthcare Ctr,"1513 East Cleveland Ave, Building 500",,East Point,GA,30344,,,,,
70,33.75920149214397,-84.41006312596636,Neighborhood Union Health Center,186 Sunset Avenue. N.W.,,Atlanta,GA,30314,,,,,
71,33.92013833373636,-84.1659802051517,Norcross Public Health Clinic,5030 Georgia Belle Court,,Norcross,GA,30093,,,,,
72,33.87142635482343,-84.30931882427006,North DeKalb Health Center,3807 Clairmont Road NE,,Chamblee,GA,30341,,,,,
73,34.058719327829635,-84.26625829828754,North Fulton  Regional Health Center,"3155 Royal Drive, Suite 125",,Alpharetta,GA,30022,,,,,
74,33.96656553198278,-84.36249273627817,North Fulton Government Service  Center,7741 Roswell Road,,Sandy Springs,GA,30350,,,,,
75,33.73941212009254,-84.28821350113742,Oakhurst Medical Center - Decatur,1760 Candler Road,,Decatur,GA,30032,,,,,
76,33.799644889140154,-84.21213907217361,Oakhurst Medical Center - Stone Mountain,770 Village Square Drive,,Stone Mountain,GA,30083,,,,,
77,33.52561326395437,-84.66399612591454,"Palmetto Health Council, Inc. - Corporate Office",643 Main Street,,Palmetto,GA,30268,,,,,
78,33.9385124958892,-84.23604248274148,Redeemer's Medical Center,"6760 Jimmy Carter Blvd.
Suite 100",,Norcross,GA,30071,,,,,
79,33.664258917008,-84.02490420581086,Rockdale County Health Dept,"985 Taylor Street, SW",,Conyers,GA,30012,,,,,
80,33.861619702440294,-84.51938047637788,Smyrna Community Health Center - WIC Services Only,"3830 South Cobb Drive, Ste. 200",,Smyrna,GA,30080,,,,,
81,33.70552641265397,-84.10903666173391,South DeKalb Center for Healthy Living,2699 Klondike Road,,Lithonia,GA,30058,,,,,
82,33.89842237872489,-84.20113740533924,Southside Medical - Norcross Clinic,"5127 Jimmy Carter Blvd., Suite 205",,Norcross,GA,30093,,,,,
83,33.72639282809871,-84.3920338128591,Southside Medical Center,"1046 Ridge Avenue, S.W.",,Atlanta,GA,30315,,,,,
84,33.712777314890786,-84.310344142497,Southside Medical Center - Gresham,2578 Gresham Road,,Atlanta,GA,30316,,,,,
85,33.74749186366307,-84.394236136693,St Josephs Mercy Care Services Clinic 24/7 Gateway,"275 Pryor Street, SW",,Atlanta,GA,30303,,,,,
86,33.765174578932374,-84.39277328816888,St Josephs Mercy Care Services Clinic at Atlanta Union Mission,"156 Mills Street, NW",,Atlanta,GA,30313,,,,,
87,33.78475666174734,-84.40796850641328,St Josephs Mercy Care Services Clinic at Atlanta Women/Children Day Shelter,"655 Ethel Street, NW",,Atlanta,GA,30318,,,,,
88,33.76603751980048,-84.38425155695398,St Josephs Mercy Care Services Clinic at Saint Luke's Episcopal Church,420 Courtland Street,,Atlanta,GA,30308,,,,,
89,33.749125947019365,-84.38936378088493,St Josephs Mercy Care Services Clinic at the Central Presbyterian Church,201 Washington Street SW,,Atlanta,GA,30303,,,,,
90,33.75063844321039,-84.37466678614396,St Josephs Mercy Care Services Clinic Downtown,424 Decatur Street,,Atlanta,GA,30312,,,,,
91,33.84374060675333,-84.32761072983175,St Josephs Mercy Care Services- Northeast Shopping Plaza,3367 Buford Highway Suite 910,,Atlanta,GA,30329,,,,,
92,33.78838657435733,-84.27947461298982,T.O. Vinson Health Center,440 Winn Way,,Decatur,GA,30030,,,,,
93,33.729911264378075,-84.89898587079136,Tanner Immediate Care,101 Quartz Drive Suite 101,,Villa Rica,GA,30180,,,,,
94,33.736926947904294,-84.41590475311273,West End Medical Centers at West Lake,868 York Avenue,,Atlanta,GA,30310,,,,,
95,33.52561326395437,-84.66399612591454,Your Town Health,643 Main Street,,Palmetto,GA,30268,,,,,
96,33.91444311789718,-84.36216902819586,Agape Hospice,5825 Glenridge Drive,,Atlanta,GA,30328,,,,,
97,33.54676886844908,-84.23422965373402,Amicasa Hospice Home Care,"157 Burke Street
Suite 119",,Stockbridge,GA,30281,,,,,
98,33.415844348378414,-84.17243754609831,Angelles Hospice and Palliatice Care Inc,2030 Avalon Parkway; Suite 435,,McDonough,GA,30253,,,,,
99,33.930209348702135,-84.3493296839514,AseraCare Hospice,"1117 Perimeter Center West
Suite 500 North",,Atlanta,GA,30338,,,,,
100,33.84010069357532,-84.23955955094732,Crossroads Hospice of Atlanta,"1957 Lakeside  Parkway
Suite 500",,Tucker,GA,30084,,,,,
101,33.60501514675275,-84.47159680748535,Divine Hospice,"5532 Old National Highway
Building G; Suite 275",,College Park,GA,30349,,,,,
102,33.9118601999906,-84.35284859622772,Embracing Hospice Care,5775 Peachtree Dunwoody Rd # D 580,,Atlanta,GA,30342,,,,,
103,33.85662489937579,-84.02901353626413,Embracing Hospice Care - Inpatient Snellville,2160 Fountain Drive,,Snellville,GA,30078,,,,,
104,33.97611753484506,-84.21427663416802,Evercare Hospice and Palliative Care,"3720 DaVinci Court
Suite 400",,Norcross,GA,30092,,,,,
105,33.541509084240204,-84.38665005844723,"Christian Ministries Hospice, Inc. - Riverdale",125 Highway 138 SW,,Riverdale,GA,30274,,,,,
106,33.92106746761198,-84.31097049014107,Compassionate Care Hospice,Five Dunwoody Park,,Atlanta,GA,30338,,,,,
107,33.72214833702208,-84.50820048131607,"First Quality Healthcare, Inc.",920 Dannon View,,Atlanta,GA,30331,,,,,
108,33.447331125102096,-84.46375266656685,Harbor Grace Hospice,500 Lanier Avenue West #401,,Fayetteville,GA,30214,,,,,
109,33.76322788936511,-84.3741869548665,Harbor Grace Hospice - Inpatient,320 Parkway Drive;  4th Floor,,Atlanta,GA,30312,,,,,
110,33.505603151778246,-84.22044994948624,Heartland Hospice - Stockbridge,827 Fairways Court Suite 200,,Stockbridge,GA,30281,,,,,
111,34.03080084128021,-84.52947381372627,Heritage Hospice,3315 Hilltop Drive,,Marietta,GA,30066,,,,,
112,34.04580339867232,-84.36135336656753,Homestead Hospice and Palliative Care,10888 Crabapple Road,,Roswell,GA,30075,,,,,
113,33.83845289707699,-84.24757236441349,Hospice Advantage - Atlanta,100 Crescent Center Pkwy; Ste 220,,Tucker,GA,30084,,,,,
114,34.03568901148799,-84.5653068697788,Hospice Advantage - Kennesaw,300 Chastain Center Blvd Suite 345,,Kennesaw,GA,30144,,,,,
115,33.44817020226276,-84.47910877787604,Hospice Advantage- Fayetteville,"101 Yorktown Drive
Suite 223",,Fayetteville,GA,30214,,,,,
116,33.84798968547682,-84.34094230874086,Hospice Atlanta - VNHS,1244 Park Vista Drive,,Atlanta,GA,30319,,,,,
117,33.93631282622431,-84.33814208515452,Journey Hospice of Atlanta LLC,4800 Ashford Dunwoody Rd; Suite 150,,Atlanta,GA,30338,,,,,
118,33.93632572156508,-84.01773045423869,"MeSun Health Services, Inc.",88 Johnson Road SW,,Lawrenceville,GA,30046,,,,,
119,33.95000645166533,-84.41440765558161,Metropolitan Hospice,200 Village Parkway,,Marietta,GA,30067,,,,,
120,33.67950471086078,-83.99489325719043,New Century Hospice,1374 Manchester Drive,,Conyers,GA,30013,,,,,
121,33.85337078008672,-84.24949196062693,Odyssey Health Care,2302 Parklake Drive; Suite 150,,Atlanta,GA,30345,,,,,
122,34.001488015361815,-84.15796382644163,Peachtree Christian Hospice,"3430 Duluth Park Lane, N.W.",,Duluth,GA,30096,,,,,
123,34.03735618084687,-84.64712737240939,Regency Hospice,"3415 Old Hwy 41, Ste 790",,Kennesaw,GA,30144,,,,,
124,33.4875715945858,-84.19743933507885,Sacred Journey Hospice,138 Peach Drive,,McDonough,GA,30253,,,,,
125,33.41067610568484,-84.56507814947503,Serenity Hospice,23 Eastbrook Bend; Suite 205,,Peachtree City,GA,30269,,,,,
126,33.55618866702525,-84.52393718871173,Southwest Christian Hospice,7225 Lester Road,,Union City,GA,30291,,,,,
127,34.25003461431231,-84.49097503147891,Transitions Hospice Care,1300 Oakside Drive; Suite 3,,Canton,GA,30114,,,,,
128,34.05638651120762,-84.37889459427049,Twelve Oaks Hospice,"580 West Crossville Rd , Suite 204",,Roswell,GA,30075,,,,,
129,33.556406716588924,-84.51889792513776,United Home Care,"7345 Red Oak Road
Building 25",,Union City,GA,30291,,,,,
130,33.85879999931649,-84.60385117145984,United Hospice,1676 Mulkey Road; Suite 103,,Austell,GA,30106,,,,,
131,33.91981901511309,-84.17964718814727,United Hospice of Atlanta,5365 Oakbrook Parkway,,Norcross,GA,30093,,,,,
132,33.751427686827185,-84.74224693123608,VistaCare Hospice - Douglasville,6458 Spring Sreet,,Douglasville,GA,30134,,,,,
133,33.79845948905006,-84.40765925941582,Vitas Innovative Hospice Care,"1575 Northside Drive Bldg 300, Ste 375",,Atlanta,GA,30318,,,,,
134,33.840577227304095,-84.42736091862037,Weinstein Hospice,3150 Howell Mill Road NW,,Atlanta,GA,30327,,,,,
135,33.855860716683935,-84.60656093810485,WellStar Community Hospice,4040 Hospital West Drive,,Austell,GA,30106,,,,,
136,33.41589394592029,-84.17172450691538,Angelles Hospice and Palliatice Care Inc,2030 Avalon Parkway Suite 435,,McDonough,GA,30253,,,,,
137,33.930209348702135,-84.3493296839514,AseraCare Hospice,"1117 Perimeter Center West
Suite 500 North",,Atlanta,GA,30338,,,,,
138,33.541413994909306,-84.38649318982709,"Christian Ministries Palliative Care, Inc. Riverdale",125 Highway 138 SW,,Riverdale,GA,30274,,,,,
139,33.83845289707699,-84.24757236441349,Hospice Advantage - Atlanta,100 Crescent Center Pkwy; Ste 220,,Tucker,GA,30084,,,,,
140,34.03568901148799,-84.5653068697788,Hospice Advantage - Kennesaw,300 Chastain Center Blvd Suite 345,,Kennesaw,GA,30144,,,,,
141,33.44817020226276,-84.47910877787604,Hospice Advantage- Fayetteville,"101 Yorktown Drive
Suite 223",,Fayetteville,GA,30214,,,,,
142,33.93632572156508,-84.01773045423869,"MeSun Health Services, Inc.",88 Johnson Road SW,,Lawrenceville,GA,30046,,,,,
143,33.733886153737444,-84.39071659848224,Our Lady of Perpetual Help Home,760 Pollard Boulevard SW,,Atlanta,GA,30315,,,,,
144,33.85863669261835,-84.01336950906642,Serenity Palliative and Hospice Care,2346 Wisteria Drive,,Snellville,GA,30078,,,,,
145,34.25003461431231,-84.49097503147891,Transitions Hospice Care,1300 Oakside Drive; Suite 3,,Canton,GA,30114,,,,,
146,33.855860716683935,-84.60656093810485,WellStar Kennestone Hospital,4040 Hospital West Drive,,Austell,GA,30106,,,,,
763,33.607117791196345,-84.45334700131178,Anchor Hospital,5454 Yorktown Drive,,Atlanta,GA,30349,,,,,
764,33.77680187849995,-84.38271955504473,Atlanta Center For Medical Research,811 Juniper Street NE,,Atlanta,GA,30308,,,,,
765,33.85662489937579,-84.02901353626413,Eastside Heritage Center,2160 Fountain Drive,,Snellville,GA,30078,,,,,
766,33.695841586627125,-84.2717582384999,Georgia Regional Hospital,3073 Panthersville Road,,Decatur,GA,30034,,,,,
767,33.75167225925918,-84.38294364607304,Grady Psychiatric Emergency Clinic,"80 Jesse Hill Jr. Drive, S.E.",,Atlanta,GA,30303,,,,,
768,33.92320301185208,-84.30339552761859,Peachford Behavioral Health Sciences of Atlanta,2151 Peachford Road,,Atlanta,GA,30338,,,,,
769,33.57775328781764,-84.39689207455683,RiverWoods Psychiatric Hospital,223 Medical Center Drive,,Riverdale,GA,30274,,,,,
770,33.826155760338736,-84.25013748388915,Emory University Orthopaedics and Spine Hospital,1455 Montreal Road,,Tucker,GA,30084,,,,,
771,33.695841586627125,-84.2717582384999,Georgia Regional Hospital,3073 Panthersville Road,,Decatur,GA,30034,,,,,
772,33.77384144523717,-84.38275003812515,Kindred Atlanta Hospital,"705 Juniper Street, N.E.",,Atlanta,GA,30365,,,,,
773,33.68124486444327,-84.42717654585601,Regency Hospital of South Atlanta,1170 Cleveland Avenue,,East Point,GA,30344,,,,,
774,33.76956595056595,-84.38531536044587,Select Specialty Hospital,"550 Peachtree Street
7th. Floor Woodruff Bldg.",,Atlanta,GA,30308,,,,,
775,33.80980460066678,-84.39319131086455,Shepherd Center,"2020 Peachtree Road, N.W.",,Atlanta,GA,30309,,,,,
776,33.659158163909524,-84.40917215604259,"Chapman Drug Company, Inc.",615 Central Avenue,,Hapeville,GA,30354,,,,,
777,33.90643568937901,-84.26961100626272,Colliers Pharmacy,5705 Buford Highway,,Doraville,GA,30340,,,,,
778,33.98897345175152,-83.89635789081348,Dacula Pharmacy,2555 2nd Avenue,,Dacula,GA,30019,,,,,
779,33.619566950568355,-84.35583046812627,Christians Pharmacy,1032 Main Street,,Forest Park,GA,30050,,,,,
780,33.67937932199118,-84.4381350261769,Discount Pharmacy Services,1514 East Cleveland Avenue; Suite 114,,East Point,GA,30344,,,,,
781,34.06555610750269,-84.67669855634762,Lacey Drug Company,4797 South Main Street,,Acworth,GA,30101,,,,,
782,33.97065678663017,-84.55037846668199,Laceys Marietta Pharmacy,790 Church Street; Suite 170,,Marietta,GA,30060,,,,,
783,33.787241156434334,-84.1965916150071,McKenzie Mansfield Pharmacy Services,4824 Rockbridge Road; Suite 5 & 6,,Stone Mountain,GA,30083,,,,,
784,34.04913682907727,-84.35898347442452,Pharmacy Home Delivery LLC,1600 Macy Drive,,Roswell,GA,30076,,,,,
785,33.83433125398079,-84.36784749578271,PharmaLife,2915 Piedmont Road; Suite A,,Atlanta,GA,30305,,,,,
786,33.81880449459237,-84.38854732590113,Rite Aid Pharmacy,2345 Peachtree Road,,Atlanta,GA,30305,,,,,
787,33.79569643466425,-84.65793638986628,Wyatts Pharmacy,375 Veterans Memorial Highway,,Lithia Springs,GA,30122,,,,,
788,33.802975883567456,-84.33289578582702,A G Rhodes Health and Rehab - Wesley Woods,"1819 Clifton Road, N.E.",,Atlanta,GA,30329,,,,,
789,33.930367603662546,-84.5066576785992,A G Rhodes Health and Rehab Cobb,900 Wiley Road,,Marietta,GA,30067,,,,,
790,33.74518866478206,-84.36796026492783,A G Rhodes Health and Rehab-Atlanta,350 Boulevard S.E.,,Atlanta,GA,30312,,,,,
791,33.84872859096333,-84.61679389839179,Anderson Mill Health and Rehabilitation Center,2130 Anderson Mill Road,,Austell,GA,30106,,,,,
792,33.577527570266284,-84.38264833251219,Arrowhead Healthcare Center,239 Arrowhead Boulevard,,Jonesboro,GA,30236,,,,,
793,33.91781069491793,-84.55518233384214,Autumn Breeze Health Care Center,"1480 Sandtown Road, SW",,Marietta,GA,30008,,,,,
794,33.67953934342461,-84.42482497123814,Bonterra Nursing Center,2801 Felton Drive,,East Point,GA,30344,,,,,
795,34.232341785224605,-84.47910911268008,Brian Center of Canton,150 Hospital Circle,,Canton,GA,30114,,,,,
796,33.78174858036465,-84.34386469614697,Briarcliff Haven Healthcare and Rehabilitation,1000 Briarcliff Road N.E.,,Atlanta,GA,30306,,,,,
797,33.803439083922854,-84.33327195429479,Budd Terrace at Wesley Woods,"1833 Clifton Road, N.E.",,Atlanta,GA,30329,,,,,
798,34.24746962234093,-84.49152299909133,Canton Nursing Center,321 Hospital Road,,Canton,GA,30114,,,,,
799,34.10141346354516,-84.51664453680326,CHC Woodstock Nursing and Rehabilitation,105 Arnold Mill Road,,Woodstock,GA,30188,,,,,
800,33.55682110485145,-84.52277532343129,Christian City Convalescent Center,7300 Lester Road,,Union City,GA,30291,,,,,
801,33.81480121630733,-84.12240136848595,Cobblestone at Park Springs,600 Spring House Circle,,Stone Mountain,GA,30087,,,,,
802,33.6558975971779,-84.44674822659601,College Park Health  Care,1765 Temple Avenue,,College Park,GA,30337,,,,,
803,33.67801943106565,-84.41519713813841,Crestview Health and Rehabilitation Center,2800 Springdale Road SW,,Atlanta,GA,30315,,,,,
804,33.939491672858935,-84.10011393510524,Delmar Gardens of Gwinnett,3100 Club Drive,,Lawrenceville,GA,30044,,,,,
805,33.85560123331595,-84.51600100997598,Delmar Gardens of Smyrna,404 King Spings Village Parkway,,Smyrna,GA,30082,,,,,
806,33.69540362951636,-84.79428627818089,"Douglasville Nursing and Rehabilitation Center, LLC",4028 Highway 5,,Douglasville,GA,30135,,,,,
807,33.75349698511582,-84.3050379576797,East Lake Arbor,304 Fifth Avenue,,Decatur,GA,30030,,,,,
808,33.57113768161361,-84.58464552993212,Fairburn Healthcare Center,178 West Campbellton Street,,Fairburn,GA,30213,,,,,
809,33.82272277749246,-84.31837020356812,Fountainview Center for Alzheimers Disease,2631 North Druid Hills Road,,Atlanta,GA,30329,,,,,
810,33.67741725576559,-84.41543212591608,Foxglove Court,"2850 Springdale Road, S.W.",,Atlanta,GA,30315,,,,,
811,33.843680946232155,-84.25829913145839,Golden Living Briarwood Nursing Home,3888 Lavista Road,,Tucker,GA,30084,,,,,
812,33.90675790552808,-84.35482532123058,Golden Living Center  - Northside,5470 Meridian Mark Road,,Atlanta,GA,30342,,,,,
813,33.7377551393559,-84.24959515586096,Golden Living Center - Glenwood,4115 Glenwood Road,,Decatur,GA,30032,,,,,
814,33.96649450927663,-84.55677918338318,Golden Living Center - Kennestone,613 Roselane Street,,Marietta,GA,30060,,,,,
815,33.793132209181636,-84.27916746040773,Golden Living of Decatur,2787 North Decatur Road,,Decatur,GA,30033,,,,,
816,33.84765835411753,-84.2131091054697,Grace Healthcare of Tucker,2165 Idlewood Road,,Tucker,GA,30084,,,,,
817,33.96488663166747,-84.01123618024991,Gwinnett Extended Care Center,650 Professional Drive,,Lawrenceville,GA,30046,,,,,
818,33.90242136705541,-84.1515596790669,Heritage Healthcare of Lilburn,788 Indian Trail Road,,Lilburn,GA,30047,,,,,
819,33.77931346341546,-84.47328548107032,Heritage Healthcare of West Atlanta,2645 Whiting Street N.W.,,Atlanta,GA,30318,,,,,
820,33.53672430233689,-84.30444179586789,"Jonesboro Nursing and Rehabilitation Center, LLC",2650 Highway 138 S.E.,,Jonesboro,GA,30236,,,,,
821,33.45238833759106,-84.48345632158055,Kindred Transitional Care and Rehab - LaFayette,110 Brandywine Boulevard,,Fayetteville,GA,30214,,,,,
822,33.97051222186701,-84.55200235451758,Kindred Transitional Care and Rehab - Marietta,26 Tower Road,,Marietta,GA,30060,,,,,
823,33.59932720363571,-84.3227001227566,Lake City Nursing and Rehabilitation,2055 Rex Road,,Lake City,GA,30260,,,,,
824,33.51176102366003,-84.22593409110999,Laurel Park at Piedmont Henry Hospital,1050 Hospital Drive,,Stockbridge,GA,30281,,,,,
825,33.755621231572206,-84.37253699734958,Legacy Nursing and Rehabilitation Center,460 Auburn Avenue N.E.,,Atlanta,GA,30312,,,,,
826,33.895815347654775,-84.0980798242835,Life Care Center of Gwinnett,3850 Safehaven Drive,,Lawrenceville,GA,30044,,,,,
827,33.977692301780735,-84.00253098517277,Life Care Center of Lawrenceville,210 Collins Industrial Way,,Lawrenceville,GA,30043,,,,,
828,33.98116502680631,-84.42272067583292,Manor Care Health Services Marietta,4360 Johnson Ferry Place,,Marietta,GA,30068,,,,,
829,33.792626963565795,-84.28173107011384,Manor Care Nursing & Rehab Center,2722 North Decatur Road,,Decatur,GA,30033,,,,,
830,33.86199879391404,-84.19962032583828,Meadowbrook Nursing Home,4608 Lawrenceville Highway,,Tucker,GA,30084,,,,,
831,33.85820834033137,-84.03768565603707,New London Health Center,2020 McGee Road,,Snellville,GA,30078,,,,,
832,33.90271684695887,-84.34807680293227,Northeast Atlanta Health and Rehab,1500 South Johnson Ferry Road,,Atlanta,GA,30319,,,,,
833,33.83510550246427,-84.38581328634194,Nursecare of Buckhead,"2920 Pharr Court South, N.W.",,Atlanta,GA,30305,,,,,
834,33.85988416364438,-84.65444850223275,Powder Springs Nursing and Rehab Center,3460  Powder Springs Road,,Powder Springs,GA,30127,,,,,
835,33.85502003862359,-84.61392705828587,Presbyterian Village,2000 East-West Connector,,Austell,GA,30106,,,,,
836,33.700691469423646,-84.42608944822507,Reliable Health and Rehabilitation at Lakewood,1980 Arrow Street,,Atlanta,GA,30310,,,,,
837,33.57417244925239,-84.40098311386629,Riverdale Center,315 Upper Riverdale Road,,Riverdale,GA,30274,,,,,
838,33.680064130305595,-83.99037379233954,Rockdale Healthcare Center,1510 Renaissance Drive NE,,Conyers,GA,30012,,,,,
839,33.81605887890436,-84.17876553158703,Rosemont Of Stone Mountain,5160 Spring View Avenue,,Stone Mountain,GA,30083,,,,,
840,34.028832960367765,-84.35976274613046,Roswell Nursing and Rehabilitation Center,1109 Green Street,,Roswell,GA,30075,,,,,
841,33.75521028005443,-84.44667020537565,Sadie G. Mays Health and Rehabilitation Center,"1821 Anderson Avenue, N.W.",,Atlanta,GA,30314,,,,,
842,33.837701552894885,-84.00824923881862,Scepter Health and Rehabilitation of Snellville LLC,3000 Lenora Church Road,,Snellville,GA,30078,,,,,
843,33.999667748173806,-84.59932645484452,Ross Memorial Health Care Center,1780 Old Highway 41 N.W.,,Kennesaw,GA,30152,,,,,
844,33.974118190733236,-84.56594046598042,Signature at Marietta,811 Kennesaw Avenue,,Marietta,GA,30060,,,,,
845,33.81251741464615,-84.39020262473309,Signature Healthcare of Buckhead,54 Peachtree Park Drive,,Atlanta,GA,30309,,,,,
846,33.408137305386674,-84.59492695615575,Southland Health and Rehabilitation,151 Wisdom Road,,Peachtree City,GA,30269,,,,,
847,33.840577227304095,-84.42736091862037,The William Breman Jewish Home,3150 Howell Mill Road NW,,Atlanta,GA,30327,,,,,
848,33.70255896321703,-84.11572018952626,Traditions Health and Rehab Center,2816 Evans Mill Road,,Lithonia,GA,30058,,,,,
849,33.858983944074964,-84.60469350316146,UniHealth Post Acute Care - Austell,1700 Mulkey Road,,Austell,GA,30106,,,,,
850,33.89252986981188,-84.31948515957566,UniHealth Post Acute Care - Brookhaven,3535 Ashton Woods Drive,,Atlanta,GA,30319,,,,,
851,33.64348401855062,-84.63608159467992,Unihealth Post Acute Care - Fairburn,7560 Butner Road,,Fairburn,GA,30213,,,,,
852,33.915997579288955,-84.55528610201532,Unihealth Post Acute Care - Marietta,50 Saine Drive,,Marietta,GA,30008,,,,,
853,34.13522466681093,-84.000957023269,UniHealth Post Acute Care Lanier,2451 Peacthree Industrial Boulevard,,Buford,GA,30518,,,,,
854,33.69125667369923,-84.27214784378828,UniHealth Post-Acute Care - Decatur,3200 Panthersville Road,,Decatur,GA,30034,,,,,
855,33.680415612141246,-83.99972017298774,Westbury Health and Rehab Center,1420 Milstead Road,,Conyers,GA,30012,,,,,
856,33.44230237888337,-84.1537644462361,Westbury Health and Rehabilitation Center of McDonough,198 Hampton Street,,McDonough,GA,30253,,,,,
857,33.77562084567802,-84.36872064158655,Westminster Commons,"560 St. Charles Avenue, N.E.",,Atlanta,GA,30308,,,,,
1105,33.963902122068305,-84.41765103551523,Aloha to Aging,4608 Lower Roswell Road,,Marietta,GA,30068,,,,,
1106,33.55710840261446,-84.33193727664678,Alzheimers Services Center,7251 Mt. Zion Circle,,Morrow,GA,30260,,,,,
1107,33.41427546852697,-84.56354279203134,Ashley Glen,441 Prime Point,,Peachtree City,GA,30269,,,,,
1108,33.90873600679595,-84.19985170173948,Atlanta Adult Day Health Care Center,"6000 Live Oak Parkway, Suite 103",,Norcross,GA,30093,,,,,
1109,33.51407989090188,-84.23483456424725,Benton House at Benton Village,201 Evergreen Terrace,,Stockbridge,GA,30281,,,,,
1110,33.93814246025539,-84.08596000804374,Best Care Assisted Living,2775 Cruse Road #1401,,Lawrenceville,GA,30044,,,,,
1111,33.85525126408692,-84.00353130698232,Calvin Cove Day Program,2208 East Main Street,,Snellville,GA,30078,,,,,
1112,33.614954144825106,-84.46325972051761,Christ the King Day Habilitation Services,5155 Scofield Road,,College Park,GA,30349,,,,,
1113,33.557050732584855,-84.5225994719305,Christian City - Friendship Place,7290 Lester Road,,Union City,GA,30291,,,,,
1114,33.641244033357225,-84.50979040403115,Circle of Love Adult Day Health,5380 Somerlane Trail,,College Park,GA,30349,,,,,
1115,33.71869771960144,-84.77031477430006,Comforters Adult Day Care,5939-5941 Stewart Parkway,,Douglasville,GA,30135,,,,,
1116,33.663274170836075,-84.1934016811091,Decatur Church Friendship Center,4065 Snapfinger Road,,Lithonia,GA,30038,,,,,
1117,33.513805920549316,-84.21816302105333,Dogwood Forest at Eagles Landing,475 Country Club Drive,,Stockbridge,GA,30281,,,,,
1118,33.93045060544546,-84.37749470905351,Dorothy C. Benson Senior Multipurpose Complex,"6500 Vernon Woods Drive, Bldg. A",,Sandy Springs,GA,30328,,,,,
1119,33.98695291235424,-84.3451009123068,Emeritus at Sandy Springs Place,1262 Hightower Trail,,Atlanta,GA,30350,,,,,
1120,34.09389231625886,-84.49302484793668,Emeritus at Woodstock Senior Living Community,756 Neese Road,,Woodstock,GA,30188,,,,,
1121,33.83351242284209,-84.03184203974166,Emory Adult Day Health,2795 Scenic Hwy 124,,Snellville,GA,30078,,,,,
1122,33.83634141043774,-84.0333628191542,Emory Adult Day Health,2704 Centerville Highway 124,,Snellville,GA,30078,,,,,
1123,33.632398316587114,-84.47942154244504,Fellowship Senior Day Care Center,4530 Janice Drive,,College Park,GA,30337,,,,,
1124,33.57776631622693,-84.39852728705415,Fellowship Senior Day Care Center - Riverdale,277 Medical Way,,Riverdale,GA,30274,,,,,
1125,33.757476169782535,-84.38759202659429,Fulton County Office Of Aging,"137 Peachtree Street
Main Floor",,Atlanta,GA,30303,,,,,
1126,33.61960168755036,-84.37619249970373,Governors Glen,5000 Governors Drive,,Forest Park,GA,30297,,,,,
1127,33.95336145995998,-83.99678869770946,Grace Arbor - First United Methodist Church of Lawrenceville,395 West Crogan Street,,Lawrenceville,GA,30046,,,,,
1128,33.67654263061178,-84.44483370033055,H. J. C. Bowden Senior  Multipurpose Facility,2885 Church Street,,East Point,GA,30344,,,,,
1129,33.97618094027172,-84.23034669988891,Happy Hearts Club,4480 Peachtree Corners Circle,,Norcross,GA,30092,,,,,
1130,33.774086546530214,-84.49998709542012,Harriett G. Darnell Senior Multipurpose Facility,677 Fairburn Road N.W.,,Atlanta,GA,30331,,,,,
1131,33.67711961564788,-84.44262560233688,Heart to Heart Health Services,2861 East Point Street,,East Point,GA,30344,,,,,
1132,33.7591884787019,-84.37057817740123,Helene S. Mills  Senior Multipurpose Facility,515 John Wesley Dobbs Avenue NE,,Atlanta,GA,30312,,,,,
1133,33.51187918236593,-84.35899548363176,Jonesboro Adult Health and Day Support Center,"8896 Tara Boulevard
Building 300",,Jonesboro,GA,30236,,,,,
1134,33.83741853121802,-84.42008181288315,LIFESPAN Resources Inc,"3003 Howell Mill Road, N.W.",,Atlanta,GA,30327,,,,,
1135,33.78930960640258,-84.29031642357432,Medlock Gardens,460 Medlock Road,,Decatur,GA,30030,,,,,
1136,33.82547008088011,-84.2577001555959,Menax Adult Day Care Center,2732 Lawrenceville Highway,,Decatur,GA,30033,,,,,
1137,33.75445785256966,-84.3724495732315,"Metro Resource Center, Inc.",444 Edgewood Avenue. NE,,Atlanta,GA,30312,,,,,
1138,33.42535551293162,-84.27771965337593,Mt. Carmel Personal Care Home,3084 Mt. Carmel Road,,Hampton,GA,30228,,,,,
1139,33.715327508722396,-84.15849862227157,New Jerusalem Adult Day Health,5721 Miller Grove Road,,Lithonia,GA,30058,,,,,
1140,33.93348644631709,-84.29548253766382,Plantation South of Dunwoody,4594 Barclay Drive,,Dunwoody,GA,30338,,,,,
1141,33.834535634062036,-84.31098251632636,Plymouth Harbor Day Program,2676 Clairmont Road,,Atlanta,GA,30329,,,,,
1142,33.76999018772051,-84.19369972020019,Rem-Kiks Adult Day Health,970 South Hairston Road,,Stone Mountain,GA,30088,,,,,
1143,33.90356416363579,-84.46585915144902,SarahCare at Powers Ferry,"120 Interstate North Parkway
Suite 420",,Atlanta,GA,30339,,,,,
1144,33.88615703840321,-84.0128297812692,SarahCare of Snellville,"1567 Janmar Rd, Suite 200",,Snellville,GA,30078,,,,,
1145,33.54206773194716,-84.40078249505132,SarahCare of Riverdale,"286 Highway 138 SW, Suite C",,Riverdale,GA,30274,,,,,
1146,33.82792100639119,-84.33834915224668,Stay Well Care Solutions,"22 Executive Park Drive, Suite 2250",,Atlanta,GA,30329,,,,,
1147,33.57174973428988,-84.54852668994727,Visions Care Adult Day Health Center,"4910 Old Jonesboro Road, Building 200",,Union City,GA,30291,,,,,
1148,33.800407417762074,-84.41106638626513,Vivian T. Minor Adult Day Care Center - Meals on Wheels Atlanta,"1705 Commerce Drive, N.W.",,Atlanta,GA,30318,,,,,
1149,33.79006472061752,-84.62563949024536,Walton Nursing & Adult Day Health,"561 Thornton Road, Suite 7",,Lithia Springs,GA,30122,,,,,
1150,33.94623839947894,-84.30312661013829,Weinstein Center - Dunwoody,5300 Tilly Mill Road,,Dunwoody,GA,30338,,,,,
1151,33.74748698601388,-84.22316760661528,WeKare Adult Day Services,4441 Covington Highway,,Decatur,GA,30035,,,,,
1152,33.51880607578693,-84.36143879625297,What A Day Adult Day Care,177 College Street,,Jonesboro,GA,30236,,,,,
1153,33.85478212128481,-84.51242722877129,Woodland Ridge,4005 South Cobb Drive,,Smyrna,GA,30080,,,,,
1154,33.55796562261651,-84.33816717603457,Your Parents Place,7180 Southlake Parkway,,Morrow,GA,30260,,,,,
1155,33.756232722836614,-84.38005681004728,Aldredge Health Center,99 Jesse Hill  Jr. Drive,,Atanta,GA,30303,,,,,
1156,33.7858625669482,-84.40941585965277,Ben Massell Dental Clinic,700 Fourteenth Street,,Atlanta,GA,30318,,,,,
1157,33.596360495409044,-84.33330417753183,Clayton State University Dental Hygeine Clinic,2000 Clayton State Boulevard,,Morrow,GA,30260,,,,,
1158,33.69072729372982,-84.26768783080428,Clifton Springs Health Center,3110 Clifton Springs Road,,Decatur,GA,30034,,,,,
1159,33.65092353122657,-84.45194855962552,College Park Regional Health Center,1920 John Wesley Ave.,,College Park,GA,30337,,,,,
1160,33.801896446675926,-84.63941515685707,Community Health Center,"6289 Veterans Memorial Highway
Suite 12-C",,Austell,GA,30168,,,,,
1161,33.94338939526119,-84.30171105127539,Dental Hygiene Clinic - Georgia Perimeter College,2101 Womack Road,,Dunwoody,GA,30338,,,,,
1162,33.827994205275104,-84.34094191648211,Dentistry for the Developmentally Disabled,"52 Executive Park South, Suite 5203",,Atlanta,GA,30329,,,,,
1163,33.74178196015663,-84.12381628126496,East DeKalb Health Center,2277 South Stone Mountain-Lithonia Rd,,Lithonia,GA,30058,,,,,
1164,33.449866615320616,-84.50864513621508,Fayette Care Clinic,"1260 Highway 54 West, Suite 101",,Fayetteville,GA,30214,,,,,
1165,33.77334180332991,-84.42098952412107,Good Samaritan Health Center,1015 Donald Lee Hollowell Parkway,,Atlanta,GA,30318,,,,,
1166,33.91410869745965,-84.55689056889838,Good Samaritan Health Center of Cobb,1605 Roberta Drive,,Marietta,GA,30008,,,,,
1167,33.511852297859036,-84.22599485489093,Hands of Hope Medical Clinic,1010 Hospital Drive; Building B,,Stockbridge,GA,30281,,,,,
1168,33.80370117437087,-84.33348927254286,Ina T. Allen Dental Center of Wesley Woods,1841 Clifton Road NE,,Atlanta,GA,30329,,,,,
1169,33.75396388428618,-84.32591489913659,Kirkwood Dekalb Dental Clinic,30 Warren Street,,Atlanta,GA,30317,,,,,
1170,33.70351267490673,-84.3774981608322,Lakewood Health Center,1853 Jonesboro Road  S.E.,,Atlanta,GA,30315,,,,,
1171,33.75920149214397,-84.41006312596636,Neighborhood Union Health Center,186 Sunset Avenue. N.W.,,Atlanta,GA,30314,,,,,
1172,33.87142635482343,-84.30931882427006,North DeKalb Health Center,3807 Clairmont Road NE,,Chamblee,GA,30341,,,,,
1173,34.058719327829635,-84.26625829828754,North Fulton  Regional Health Center,"3155 Royal Drive, Suite 125",,Alpharetta,GA,30022,,,,,
1174,33.96656553198278,-84.36249273627817,North Fulton Government Service  Center,7741 Roswell Road,,Sandy Springs,GA,30350,,,,,
1175,33.678273644915976,-84.40843827529687,"Oak Hill Child, Family and Adolescent Center",2805 Metropolitan Parkway,,Atlanta,GA,30315,,,,,
1176,33.52561326395437,-84.66399612591454,"Palmetto Health Council, Inc. - Corporate Office",643 Main Street,,Palmetto,GA,30268,,,,,
1177,33.72639282809871,-84.3920338128591,Southside Medical Center,"1046 Ridge Avenue, S.W.",,Atlanta,GA,30315,,,,,
1178,33.712777314890786,-84.310344142497,Southside Medical Center - Gresham,2578 Gresham Road,,Atlanta,GA,30316,,,,,
1179,33.75063844321039,-84.37466678614396,St Josephs Mercy Care Services Clinic Downtown,424 Decatur Street,,Atlanta,GA,30312,,,,,
1180,33.78838657435733,-84.27947461298982,T.O. Vinson Health Center,440 Winn Way,,Decatur,GA,30030,,,,,
1181,33.736926947904294,-84.41590475311273,West End Medical Center,868 York Avenue,,Atanta,GA,30310,,,,,
1182,33.73649918462581,-84.72861906745572,West Georgia Technical - Douglas Campus,4600 Timber Ridge Drive,,Douglasville,GA,30135,,,,,
1183,33.79845948905006,-84.40765925941582,Buckhead Dialysis - DaVita,"1575 Northside Drive, Suite 365",,Atlanta,GA,30318,,,,,
1184,33.52274340488276,-84.35299629669618,Davita - Jonesboro Dialysis,129 King Street,,Jonesboro,GA,30236,,,,,
1185,33.8035245754578,-84.31349313889103,Davita - Southern Lane,1840 Southern Lane,,Decatur,GA,30033,,,,,
1186,33.75308158981278,-84.4710952065347,DaVita Dialysis Center - West,"2538 Martin Luther King, Jr. Drive",,Atlanta,GA,30311,,,,,
1187,33.771025403667124,-84.36845114336722,DaVita Healthcare - Atlanta,"567 North Avenue, NE, Suite 200",,Atlanta,GA,30308,,,,,
1188,33.66846536242383,-84.44343689494133,DaVita Healthcare - East Point,"3158 East Main Street, Suite A",,East Point,GA,30344,,,,,
1189,33.912667625726954,-84.35073558537727,DaVita Healthcare - Lake Hearn,"1150 Lake Hearn Drive NE,  Suite 100",,Atlanta,GA,30342,,,,,
1190,33.80857535613825,-84.39791609052514,DaVita Healthcare - Piedmont,"105 Collier Road N.W., Level B",,Atlanta,GA,30309,,,,,
1191,33.68317992945373,-84.40798558410711,Davita Healthcare - South Fulton,"2685 Metropolitan Parkway, Suite F",,Atlanta,GA,30315,,,,,
1192,33.757769397107836,-84.38237849658026,"DCI Atlanta Home Dialysis, Inc.","120 Piedmont Avenue, Suite 100",,Atlanta,GA,30303,,,,,
1193,33.79241986229954,-84.29028676652428,"DCI Dialysis Clinic, Inc.",558 Medlock Road,,Decatur,GA,30030,,,,,
1194,33.77272004503584,-84.37945783015101,"DCI Dialysis Clinic, Inc.",240 Ponce De Leon Avenue,,Atlanta,GA,30308,,,,,
1195,33.451536338606445,-84.4816367226984,"DCI Dialysis Clinic, Inc.",155 Brandywine Boulevard,,Fayetteville,GA,30214,,,,,
1196,33.77874663221553,-84.40770777188368,"DCI Dialysis Clinic, Inc.",870 Northside Drive,,Atlanta,GA,30318,,,,,
1197,34.06767756608235,-84.31960729807292,FMC - Alpharetta Dialysis Center,1260 A Upper Hembree Road,,Roswell,GA,30076,,,,,
1198,33.79042072385914,-84.27998771702039,FMC - Decatur Dialysis Center,497 Winn Way; Suite 160,,Decatur,GA,30033,,,,,
1199,33.856449862032775,-84.03537721146529,FMC - Snellville,2096 McGee Road,,Snellville,GA,30078,,,,,
1200,33.85437444856876,-84.2228410378359,FMC - Tucker,4845 LaVista Road,,Tucker,GA,30084,,,,,
1201,34.08558413772562,-84.5035591735184,FMC - Woodstock,110 Londonderry Court; Suite 100,,Woostock,GA,30188,,,,,
1202,33.91444311789718,-84.36216902819586,FMC Perimeter Dialysis,"5825 Glenridge Drive
Suite 150, Building 3",,Atlanta,GA,30328,,,,,
1203,33.98015071845845,-84.54965046856614,Fresenius Dialysis Center - Marietta,"1277 Kennestone Circle, Suite 600",,Marietta,GA,30066,,,,,
1204,33.75167225925918,-84.38294364607304,Grady Dialysis Clinic,"80 Jesse Hill Jr. Drive, S.E.",,Atlanta,GA,30303,,,,,
1205,33.7697105938683,-84.38354797344539,Midtown Dialysis Center - DaVita,121 Linden Avenue,,Atlanta,GA,30308,,,,,
1206,33.76274218343718,-84.37402358817036,Atlanta Medical Center,"303 Parkway Drive, N.E.",,Atlanta,GA,30312,,,,,
1207,33.79187156629786,-84.28358164609773,DeKalb Medical Center,2701 North Decatur Road,,Decatur,GA,30033,,,,,
1208,33.706372064517154,-84.14703574739417,DeKalb Medical Center - Hillandale,2801 Dekalb Medical Parkway,,Lithonia,GA,30058,,,,,
1209,33.877579344641674,-84.01953096352179,Eastside Medical Center,1700 Medical Way,,Snellville,GA,30078,,,,,
1210,33.856125376870466,-84.51370377694593,Emory Adventist Hospital,3949 South Cobb Drive S.E.,,Smyrna,GA,30080,,,,,
1211,34.06738802536296,-84.17532841960758,Emory Johns Creek Hospital,6325 Hospital Parkway,,Johns Creek,GA,30097,,,,,
1212,33.79248387514559,-84.32113840853452,Emory University Hospital,"1364 Clifton Road, N.E.",,Atlanta,GA,30322,,,,,
1213,33.76956595056595,-84.38531536044587,Emory University Hospital Midtown,550 Peachtree Street N.E.,,Atlanta,GA,30308,,,,,
1214,34.00654943143422,-84.15210732157112,Glancy Rehabilitation Center,3215 McClure Bridge Road,,Duluth,GA,30096,,,,,
1215,33.75167225925918,-84.38294364607304,Grady Health Systems,"80 Jesse Hill Jr. Drive, S.E.",,Atlanta,GA,30303,,,,,
1216,33.96436490012718,-84.01454025252588,Gwinnett Medical Center,1000 Medical Center Boulevard,,Lawrenceville,GA,30045,,,,,
1217,34.000152798959675,-84.16562557844674,Gwinnett Medical Center - Duluth,3620 Howell Ferry Road,,Duluth,GA,30096,,,,,
1218,34.062415951871,-84.3203850257716,North Fulton Hospital,3000 Hospital Boulevard,,Roswell,GA,30076,,,,,
1219,33.90801403502985,-84.35490123349479,Northside Hospital,1000 Johnson Ferry Road N.E.,,Atlanta,GA,30342,,,,,
1220,34.24544789140435,-84.49229240060777,Northside Hospital Cherokee,201 Hospital Road,,Canton,GA,30114,,,,,
1221,33.80857720351952,-84.39370361823023,Piedmont Atlanta Hospital,"1968 Peachtree Road, N.W.",,Atlanta,GA,30309,,,,,
1222,33.50923605894428,-84.22581785358915,Piedmont Henry Hospital,1133 Eagles Landing Parkway,,Stockbridge,GA,30281,,,,,
1223,33.452186840117065,-84.50826484865098,Piedmont Fayette Hospital,1255 Highway 54 West,,Fayetteville,GA,30214,,,,,
1224,33.6820156664225,-84.00210310989229,Rockdale Medical Center,1412 Milstead Avenue,,Conyers,GA,30012,,,,,
1225,33.90878618573976,-84.3516875436203,Saint Josephs Hospital of Atlanta,5665 Peachtree Dunwoody N.E.,,Atlanta,GA,30342,,,,,
1226,33.579058878608464,-84.38873511383372,Southern Regional Medical Center,11 Upper Riverdale Road,,Riverdale,GA,30274,,,,,
1227,33.85607500371168,-84.60213744766088,Wellstar Cobb Hospital,"3950 Austell Road, S.W.",,Austell,GA,30106,,,,,
1228,33.73866287178964,-84.73297508518613,WellStar Douglas Hospital,8954 Hospital Drive,,Douglasville,GA,30134,,,,,
1229,33.96791708861326,-84.55032624182627,WellStar Kennestone Hospital,677 Church Street N.E.,,Marietta,GA,30060,,,,,
1230,33.80304200152602,-84.33294906057165,Wesley Woods Geriatric Hospital,"1821 Clifton Road, N.E.",,Atlanta,GA,30329,,,,,
