OBJECTID,LONGITUDE,LATITUDE,POI_NAME,Address_1,Address_2,CITY,STATE,ZIP,RESERVED_1,RESERVED_2,RESERVED_3,COUNTY,POI_TYPE
259,33.49533782342468,-84.30298758914216,A Better Home Care,2700 Stancil Boulevard,,Jonesboro,GA,30236,,,,,
260,33.91509933033552,-84.25570067344137,A Home for Mom and Dad,2560 Johnson Drive,,Doraville,GA,30340,,,,,
261,34.021958365438195,-84.50240544397485,AAA Holly House,1680 Northwoods Drive,,Marietta,GA,30066,,,,,
262,33.95558272069161,-84.53985261988942,AAN Center,414 Rigby Street,,Marietta,GA,30060,,,,,
263,33.7325063410737,-84.20387027953768,Adam and Eve Personal Care Home,5169 Covington Highway,,Decatur,GA,30035,,,,,
264,33.939805952407426,-84.11903175151463,Adonis Personal Care Home 2,1409 Greenview Way,,Lawrenceville,GA,30044,,,,,
265,33.821663485258966,-84.09527818803002,All Partners In Care Services,2266 Stone Drive,,Lilburn,GA,30047,,,,,
266,33.83538467041541,-84.53695469864056,Amelia Gardens - Mableton,576 Nickajack Road,,Mableton,GA,30126,,,,,
267,34.14870070149732,-84.49180007157315,Amelia Gardens I,545 Toonigh Road,,Woodstock,GA,30188,,,,,
268,34.091477145760905,-84.54727068150783,Amelia Gardens II,2030 Bascomb Carmel Road,,Woodstock,GA,30189,,,,,
269,33.58360298942392,-84.44850352225973,Angels PCH,6290 West Fayetteville Road,,Riverdale,GA,30296,,,,,
270,33.397477215956656,-84.20432328363847,Antias Tender Touch,600 Pullin Road,,McDonough,GA,30253,,,,,
271,33.728214867134454,-84.50583220970702,Arbor Terrace at Cascade,1001 Research Center Atlanta Drive,,Atlanta,GA,30331,,,,,
272,33.9707201675364,-84.41317538740401,Arbor Terrace of East Cobb,886 Johnson Ferry Road,,Marietta,GA,30068,,,,,
273,33.6087993367193,-84.48453962569408,Around the Clock Care,5337 Jerome Road,,Atlanta,GA,30349,,,,,
274,33.40670364585128,-84.2848827604978,Aryoak PCH,425 Ryoaks Drive,,Hampton,GA,30228,,,,,
275,33.41427546852697,-84.56354279203134,Ashley Glen Senior Living and Memory Care,441 Prime Point,,Peachtree City,GA,30269,,,,,
276,33.9872614431676,-84.53821106389819,Ashley Manor Personal Care Home,532 Dickson Road,,Marietta,GA,30066,,,,,
277,33.9391532224854,-84.01770996259177,Ashton Hall,1155 Lawrenceville Highway,,Lawrenceville,GA,30046,,,,,
278,33.970249370719046,-84.5547859128788,Atherton Place,111 Tower Road,,Marietta,GA,30060,,,,,
279,33.733300758622136,-84.54313563897193,Atlanta Residential Care,4760 Cascade Road SW,,Atlanta,GA,30331,,,,,
280,33.83227554184214,-84.3568910474309,Atria Buckhead,2848 Lenox Road,,Atlanta,GA,30324,,,,,
281,33.94923798832292,-84.41227837348964,Atria Johnson Ferry,9 Sherwood Lane,,Marietta,GA,30067,,,,,
282,33.86002217508559,-84.59344952923618,ATRIA of Mableton,3829 Floyd Road,,Austell,GA,30106,,,,,
283,33.87492325234729,-84.17131602375025,AtriaTucker,5844 Highway 29,,Tucker,GA,30084,,,,,
284,33.55572532035171,-84.39287966949655,Attentive Needs Assisted Living,7264 Amanda Court,,Riverdale,GA,30274,,,,,
285,33.87932822567137,-84.24218316955466,Autumn House,3059 Nottaway Court,,Chamblee,GA,30341,,,,,
286,33.77166991393375,-84.24474622170231,Avondale Assisted Living at Kensington,3508 Kensington Road,,Decatur,GA,30032,,,,,
287,33.836721620349806,-84.23168571810567,Avondale Assisted Living at Northlake,3965 Gloucester Drive,,Tucker,GA,30084,,,,,
288,33.8621596756787,-84.18897871905455,Avondale Homes at Tucker,2553 Sandpiper Drive,,Tucker,GA,30084,,,,,
289,33.45023729139962,-84.43846066290541,Azalea Estates,105 Autumn Glen Circle,,Fayetteville,GA,30215,,,,,
290,33.84264250895626,-84.26265915321784,Azalea House,1896 Ludovie Lane,,Decatur,GA,30033,,,,,
291,33.81282471573434,-84.5724148226987,B & E Personal Care Home,5786 Mableton Parkway,,Mableton,GA,30126,,,,,
292,34.07940872022573,-84.30248474384626,Bebes Cottage,290 Meadow Drive,,Alpharetta,GA,30009,,,,,
293,33.902596314042285,-84.37456581939188,Belmont Village at Buckhead,5455 Glenridge Drive,,Atlanta,GA,30342,,,,,
294,33.51407989090188,-84.23483456424725,Benton House at Benton Village - Transitional Step Down Program,201 Evergreen Terrace,,Stockbridge,GA,30281,,,,,
295,33.93814246025539,-84.08596000804374,BestCare Assisted Living,2775 Cruse Road; #1401,,Lawrenceville,GA,30044,,,,,
296,33.86093094299275,-84.68554038640195,Bethel Gardens Senior Living,3805 Jackson Way,,Powder Springs,GA,30127,,,,,
297,33.9701112296155,-84.48636399249739,Bickford Senior Living,840 LeCroy Drive,,Marietta,GA,30068,,,,,
298,33.962992781275545,-83.87881510050039,Blossom Personal Care Home,2494 Lillies Trace,,Dacula,GA,30019,,,,,
299,33.56234716152454,-84.29166573925255,Brians Personal Care Home,3010 Deerfield Way,,Rex,GA,30273,,,,,
300,33.95261341091293,-83.92703386527143,Brighter Beginning PCH,800 Chapel Hill Drive,,Lawrenceville,GA,30045,,,,,
301,33.994549474949736,-84.51913390063493,Brittany House at Benson Heights,1788 Sandy Plains Road,,Marietta,GA,30066,,,,,
302,34.02012360738121,-84.4689117620099,Brittany House at Holly Springs,2852 Holly Springs Road,,Marietta,GA,30062,,,,,
303,34.02036654404651,-84.49983445374863,Brittany House at Macby,1780 Macby Drive,,Marietta,GA,30066,,,,,
304,33.91516953278557,-84.37604565191913,Campbell-Stone Sandy Springs,"350 Carpenter Drive, NE",,Atlanta,GA,30328,,,,,
305,33.631969768623264,-84.52099473040869,Carefree Maison,4055 Will Lee Road,,College Park,GA,30349,,,,,
306,33.83419982609945,-84.60481596192744,Caring 4 You,4945 Golden Circle,,Mableton,GA,30126,,,,,
307,33.55104237535352,-84.44767117653691,Caring Hands Assisted Living,1741 Highway 138,,Riverdale,GA,30296,,,,,
308,33.79473563650055,-84.56605628278663,Celestial Care Services,6571 Valley Hill Drive,,Mableton,GA,30126,,,,,
309,34.04515165648468,-84.34476506145415,Chambrel at Roswell,1000 Applewood Drive,,Roswell,GA,30076,,,,,
310,34.20527943745657,-84.50687103941925,Cherokee Angel PCH #3,326 Heights Place,,Canton,GA,30114,,,,,
311,34.081830493192626,-84.29794007943497,Churchill Manor,143 Mayfield Road,,Alpharetta,GA,30009,,,,,
312,33.756223328173235,-84.6654216893404,Comforters,2753 Trail Creek Circle,,Lithia Springs,GA,30122,,,,,
313,33.845983447791866,-84.03157114005234,Comfy Personal Care Home,2460 Skylars Mill Way,,Snellville,GA,30078,,,,,
314,33.93764577684669,-84.06440084379824,Cornerstone Care Home,594 Shannon Way,,Lawrenceville,GA,30044,,,,,
315,33.762062910719465,-84.18754683438812,Cornerstone Care of Georgia PCH,1152 Nimblewood Way,,Stone Mountain,GA,30088,,,,,
316,33.96971878794898,-84.03117604509248,Courtyard Gardens,1000 River Center Place,,Lawrenceville,GA,30043,,,,,
317,33.79393171923323,-84.2776011517451,Coventry Place,2806 North Decatur Road,,Decatur,GA,30033,,,,,
318,34.0878057319764,-84.305682726974,Crabapple Hall,200 Pine Valley Drive,,Alpharetta,GA,30009,,,,,
319,33.939491672858935,-84.10011393510524,Delmar Gardens of Gwinnett,3100 Club Drive,,Lawrenceville,GA,30044,,,,,
320,33.85560123331595,-84.51600100997598,Delmar Gardens of Smyrna,404 Kings Springs Village Parkway,,Smyrna,GA,30082,,,,,
321,33.594430098982,-84.44158778252915,Denita Care PCH,1616 Flat Shoals Road,,College Park,GA,30349,,,,,
322,33.72883886711713,-84.15852454593141,Diane's House Personal Care,2038 Mallard Way,,Lithonia,GA,30058,,,,,
323,33.75958790726327,-84.661246387024,Divine Connections Assisted Living,2515 Winding Creek Drive,,Lithia Springs,GA,30122,,,,,
324,33.513805920549316,-84.21816302105333,Dogwood Forest at Eagles Landing,475 Country Club Drive,,Stockbridge,GA,30281,,,,,
325,34.082292941448145,-84.29464424687575,Dogwood Forest of Alpharetta,253 North Main Street,,Alpharetta,GA,30009,,,,,
326,33.956310057190876,-84.35435074757635,Dogwood Forest of Dunwoody,7400 Peachtree Dunwoody Road,,Atlanta,GA,30328,,,,,
327,33.68804056687998,-84.20721600745532,Dynamic Personal Care Home,3363 Luxembourg Circle,,Decatur,GA,30034,,,,,
328,33.45010843256682,-84.50866871846841,Dogwood Forest of Fayetteville,1294 Highway 54 West,,Fayetteville,GA,30214,,,,,
329,33.86607092502601,-84.01635023065182,Eastside Gardens,2078 Scenic Highway,,Snellville,GA,30078,,,,,
330,33.87005383421939,-83.96172696225074,Eden Personal Care Home,2438 Swan Lake Drive,,Grayson,GA,30017,,,,,
331,33.874748052992175,-84.08499252688,Elaines Personal Care Home,626 East Riverbend Drive,,Lilburn,GA,30047,,,,,
332,33.876079585999435,-84.13647002918634,Elaines Personal Care Home II,186 Lockring Drive,,Lilburn,GA,30047,,,,,
333,33.88263980679551,-84.59132524436694,Elmcroft at Milford Chase,1345 Milford Church Road,,Marietta,GA,30008,,,,,
334,33.54978340542095,-84.33454584731624,Elmcroft of Mt. Zion,7493 Mount Zion Boulevard,,Jonesboro,GA,30236,,,,,
335,33.95998864278931,-84.510882691819,Emerald Isles PCH,1402 Shadowbrook Drive,,Marietta,GA,30062,,,,,
336,33.789650932497125,-84.27774408138924,Emeritus at Decatur,475 Irvin Court,,Decatur,GA,30030,,,,,
337,33.90363915377134,-84.34856202458252,Emeritus at Dunwoody,1460 South Johnson Ferry Road,,Dunwoody,GA,30319,,,,,
338,34.25288952843306,-84.48191995255496,Emeritus at Riverstone Senior Living,125 Riverstone Terrace,,Canton,GA,30114,,,,,
339,33.986965862447846,-84.34516460685722,Emeritus at Sandy Springs,1260 Hightower Trail,,Atlanta,GA,30350,,,,,
340,33.98695291235424,-84.3451009123068,Emeritus at Sandy Springs Place,1262 Hightower Trail,,Atlanta,GA,30350,,,,,
341,33.90178141985638,-84.60588672975587,Emeritus at Spring Mountain,1790 Powder Springs Road,,Marietta,GA,30064,,,,,
342,33.762196375618146,-84.65075087339267,Emeritus at Sweetwater Assisted Living,1600 Lee Road,,Lithia Springs,GA,30122,,,,,
343,33.86090974786339,-84.47985686085491,Emeritus at Vinings,2401 Cumberland Parkway SE,,Atlanta,GA,30309,,,,,
344,34.09389231625886,-84.49302484793668,Emeritus at Woodstock Senior Living Community,756 Neese Road,,Woodstock,GA,30188,,,,,
345,33.728467713857356,-84.47735688843505,enAble of Georgia at Benjamin E. Mays,2729 Benjamin E. Mays Drive,,Atlanta,GA,30311,,,,,
346,33.67982404027259,-84.48274262151102,enAble of Georgia at Branchwood,2864 Branchwood Drive,,East Point,GA,30344,,,,,
347,33.83351242284209,-84.03184203974166,Emory Senior Living,2795 Scenic Highway 124,,Snellville,GA,30078,,,,,
348,34.03570646737239,-84.36146957967696,enAble of Georgia at Crabapple,10500 Crabapple Road,,Roswell,GA,30075,,,,,
349,34.06799688567639,-84.33682860278941,enAble of Georgia at East Hembree,805 East Hembree Crossing,,Roswell,GA,30076,,,,,
350,34.02717637709935,-84.2998863494978,enAble of Georgia at Barrington,1070 Barrington Lane Court,,Alpharetta,GA,30076,,,,,
351,34.02756644494599,-84.37752384909356,enAble of Georgia at Pine Grove,540 Pine Grove,,Roswell,GA,30075,,,,,
352,34.08103197797442,-84.2884649582906,enAble of Georgia at Cold Creek,164 Cold Creek Drive,,Alpharetta,GA,30004,,,,,
353,33.88290265852686,-84.00126205192726,Ettas House,1682 Pharr Road,,Snellville,GA,30078,,,,,
354,33.75205092732938,-84.2118614648727,Evening Sun Personal Care,1392 Colony East Circle,,Stone Mountain,GA,30083,,,,,
355,33.50417467545384,-84.41821731200423,Faith and Hope Personal Care Home,773 Chapman Street,,Jonesboro,GA,30238,,,,,
356,33.74717808057875,-84.24198256116154,Faith Personal Care Home,3623 Mecklinburg Place,,Decatur,GA,30032,,,,,
357,33.73350716144512,-84.28752917124041,Faithfully Yours PCH,2512 Melville Avenue,,Decatur,GA,30032,,,,,
358,33.57776631622693,-84.39852728705415,Fellowship Assisted Living,277 Medical Way,,Riverdale,GA,30274,,,,,
359,33.72124651605799,-84.24644530874536,Fern's Tender Loving Care Home,3547 Spring Valley Road,,Decatur,GA,30032,,,,,
360,33.8386671933244,-84.01604145999192,Fonzabella Personal Care Home,2861 Hickory Trail,,Snellville,GA,30078,,,,,
361,34.08568105824395,-84.28953169236473,enAble of Georgia at Denna Drive,130 Denna Drive,,Alpharetta,GA,30004,,,,,
362,33.7642397587216,-84.08955482402905,G & M Personal Care Home,1635 Stephenson Road,,Lithonia,GA,30058,,,,,
363,33.99587814436512,-84.58361054563414,Gaines Park,1740 Old Highway 41,,Kennesaw,GA,30152,,,,,
364,34.00229950841856,-84.2765271483994,Gardens of Roswell,9212 Nesbit Ferry Road,,Alpharetta,GA,30022,,,,,
365,33.51840885332456,-84.68733497732484,Garrison Personal Care Home,519 Perkins Road,,Palmetto,GA,30268,,,,,
366,33.55173355647423,-84.31490843092104,Generation of Hope PCH,2388 Opal Drive,,Jonesboro,GA,30236,,,,,
367,34.09073540278348,-83.95863066212326,Generous Care Giving,2769 Kilgore Road,,Buford,GA,30519,,,,,
368,33.55403041576437,-84.38160420833776,Gentle Services In Home Care,7363 Ovis Court,,Riverdale,GA,30274,,,,,
369,33.58260703922463,-84.31939722392144,Golden Crest,2160 Lake Harbin Road,,Morrow,GA,30260,,,,,
370,33.51089251047722,-84.21751633811641,Golden Crest Assisted Living - Eagles Landing,425 Country Club Drive,,Stockbridge,GA,30281,,,,,
371,33.61960168755036,-84.37619249970373,Governors Glen Memory Care Assisted Living,5000 Governors Drive,,Forest Park,GA,30297,,,,,
372,34.0215249062976,-84.48883636413365,Green Park PCH,2941 Sandy Plains Road,,Marietta,GA,30066,,,,,
373,33.95053403088065,-84.58460533505365,Greenwood Gardens,1160 Whitlock Avenue,,Marietta,GA,30064,,,,,
374,33.811775248089816,-84.20388802220606,Grosvenor Personal Care Home,4556 Central Drive,,Stone Mountain,GA,30083,,,,,
375,33.91895937710501,-84.37644962741484,Hammond Glen,"335 Hammond Drive, N.E.",,Sandy Springs,GA,30328,,,,,
376,33.666874322615115,-84.40865561007382,Hapeville Manor Assisted Living,601 Coleman Street,,Hapeville,GA,30354,,,,,
377,33.9046000844761,-84.5321911922706,Harold Avenue PCH,1969 Harold Avenue,,Smyrna,GA,30080,,,,,
378,34.03001301530065,-84.34062867554883,Hearthstone of Roswell,350 Market Place,,Roswell,GA,30075,,,,,
379,34.07302806871371,-84.41334072425906,Heather House,11965 Old Mountain Park Road,,Roswell,GA,30075,,,,,
380,34.10167771515967,-84.36892923991189,Heather House Crabapple,290 Ranchette Road,,Alpharetta,GA,30004,,,,,
381,33.58445188503106,-84.46010635723007,Helping Hands Personal Care Home 2,6260 Mozart Drive,,Riverdale,GA,30296,,,,,
382,33.83860324694888,-84.70472291369009,"Helping Hands Personal Care Provider, Inc.",4751 Brownsville Road,,Powder Springs,GA,30127,,,,,
383,33.99650792016979,-84.70327003345653,Heritage of Brookstone,5235 Stilesboro Road N.W.,,Kennesaw,GA,30152,,,,,
384,33.42945913307642,-84.55731763511119,Heritage of Peachtree,1967 Highway 54 West,,Fayetteville,GA,30214,,,,,
385,34.02510119708057,-84.48197678873657,Heritage of Sandy Plains,3039 Sandy Plains Road,,Marietta,GA,30066,,,,,
386,33.65872086318234,-84.01383060686612,Highland Circle Personal Care Home,1028 Highland Circle,,Conyers,GA,30012,,,,,
387,33.68663755719268,-84.5364700553651,Home of Love Personal Care Home,"2188 Fairway Circle, SW",,Atlanta,GA,30331,,,,,
388,33.83168674127438,-84.05657032608718,Idris Twins Personal Care Home,3778 Burnt Leaf Lane,,Snellville,GA,30039,,,,,
389,33.711089333451355,-84.31115316633435,IJN Adult Personal Care Home - Atlanta,1949 Vicki Lane,,Atlanta,GA,30316,,,,,
390,33.5012419108657,-84.40484219824492,In Loving Hands Care,9343 Thomas Road,,Jonesboro,GA,30238,,,,,
391,34.02020579490892,-84.1936807757723,Ivy Hall North,5690 State Bridge Road,,Alpharetta,GA,30022,,,,,
392,33.88358498684249,-84.51247830422324,Ivy Springs Retirement Cottage,1408 Spring Street SE,,Smyrna,GA,30080,,,,,
393,33.70604618926501,-84.11350358658649,Jackson Falls,7579 Covington Highway,,Lithonia,GA,30058,,,,,
394,34.02927976096498,-84.43743159311128,Johnnie E. Christmas Manor,3891 Manor House Drive,,Marietta,GA,30062,,,,,
395,33.75811327446536,-84.25179061085902,Joys Manor PCH and Assisted Living,3442 Midway Road,,Decatur,GA,30032,,,,,
396,33.53684317043343,-84.30476266350007,Jonesboro Assisted Living,2620 Highway 138 S. E.,,Jonesboro,GA,30236,,,,,
397,33.85507884512475,-84.07861075311973,Killian Hill Personal Care Home,1538 Killian Hill Road,,Lilburn,GA,30047,,,,,
398,33.837389388780764,-84.31389654474805,Kings Bridge Retirement Center,"3055 Briarcliff Road, N.E.",,Atlanta,GA,30329,,,,,
399,33.62619040186195,-84.23324634417048,Kings Personal Kare Facility,111 Elizabeth Way,,Ellenwood,GA,30294,,,,,
400,33.846964035676194,-84.003820849617,Krisscare Personal Care Home,2793 Skyland Drive,,Snellville,GA,30078,,,,,
401,34.103087815859,-84.00167752835961,Lake Springs,4355 South Lee Street,,Buford,GA,30518,,,,,
402,33.77191760031093,-84.20196137624765,Langston Senior Living,4646 Ruby Forrest Drive,,Stone Mountain,GA,30083,,,,,
403,33.492930055707745,-84.36468850647947,Laties Personal Care Home,9618 Brown Road,,Jonesboro,GA,30238,,,,,
404,33.65032345314904,-84.28671562189885,Le'Glen Personal Care Home,2490 Boulder Springs Point,,Ellenwood,GA,30294,,,,,
405,33.76702257235462,-84.83750922779632,Lighthouse Personal Care Home,1431 Brittain Road,,Douglasville,GA,30134,,,,,
406,34.069870553414546,-84.52769549229527,Lovelace Living Center,4870 Farm Valley Drive,,Woodstock,GA,30188,,,,,
407,33.656123477154665,-84.59519366288009,Magnolia Lane,6365 Newborn Drive,,College Park,GA,30349,,,,,
408,33.388785734068506,-84.28418253035966,Manor on Main,17 West Main Street,,Hampton,GA,30228,,,,,
409,34.05831600845511,-84.50737898800622,Maranatha Personal Care Home,4414 Reef Road,,Marietta,GA,30066,,,,,
410,33.78930960640258,-84.29031642357432,Medlock Gardens Decatur,460 Medlock Road,,Decatur,GA,30030,,,,,
411,33.849123692574494,-83.95011355726757,Mercy Personal Care Home,3630 Brushy Wood Drive,,Loganville,GA,30052,,,,,
412,33.64474773520817,-84.48896895085272,Merrys Personal Care,4070 Janice Drive,,East Point,GA,30344,,,,,
413,33.74396531466874,-84.42344345093312,Mitchells Personal  Care Home,405 Lawton Street,,Atlanta,GA,30310,,,,,
414,33.73667493053057,-84.43580457871172,Mitchells Personal  Care Home,684 Cascade Avenue,,Atlanta,GA,30310,,,,,
415,33.678530702992475,-84.00232269598774,Morningside of Conyers,1352 Wellbrook Circle,,Conyers,GA,30012,,,,,
416,33.78178269424825,-84.70083630937347,Mount Sinai Home Care,862 Split Rock Lane,,Douglasville,GA,30134,,,,,
417,33.77135658878251,-84.23882343303768,Mountain View Personal Care Home,3675 Kensington Road,,Decatur,GA,30032,,,,,
418,33.42535551293162,-84.27771965337593,Mt. Carmel Personal Care Home,3084 Mt. Carmel Road,,Hampton,GA,30228,,,,,
419,33.84448725022003,-84.00657874086346,My House 2 Community Care Facility,2836 Ravenwood Drive,,Snellville,GA,30078,,,,,
420,33.92468344666378,-83.94696417414951,Naja Personal Care Home,935 Donington Circle,,Lawrenceville,GA,30045,,,,,
421,33.82244660271681,-84.25065824890419,Northlake Gardens,1300 Montreal Road,,Tucker,GA,30084,,,,,
422,33.739719833004415,-84.26202081073211,Norwood Christian Care Personal Care Home,1793 Parkhill Drive,,Decatur,GA,30032,,,,,
423,33.62872859261887,-84.66187486186664,Oasis of Love PCH II,4660 Sunridge Trail,,Fairburn,GA,30213,,,,,
424,33.92357177328006,-84.3070941262589,Pacifica Senior Living - Dunwoody,4484 North Shallowford Road NW,,Dunwoody,GA,30338,,,,,
425,33.63193561904501,-84.47938288781882,Palmer Family Care Home,4550 Janice Drive,,College Park,GA,30337,,,,,
426,34.01348069425978,-84.16650416411397,Parc at Duluth,3315 Peachtree Industrial Boulevard,,Duluth,GA,30096,,,,,
427,33.731076479784235,-84.14673981103101,Patrons Place PCH,1992 Sewing Circle,,Lithonia,GA,30058,,,,,
428,33.78864762403771,-84.0108509744415,Petal's PCH,3371 Glen Summit Lane,,Snellville,GA,30039,,,,,
429,34.001397850720934,-84.15826884275873,Plantation South of Duluth,3450 Duluth Park Lane,,Duluth,GA,30096,,,,,
430,33.93348644631709,-84.29548253766382,Plantation South of Dunwoody,4594 Barclay Drive,,Dunwoody,GA,30338,,,,,
431,33.60212519795516,-84.31308754071989,Platinum Care Personal Care Home,2358 Oak Avenue,,Morrow,GA,30260,,,,,
432,33.49166996538111,-84.3549035414448,Precious Touch PCH,6631 Chason Woods Court,,Jonesboro,GA,30238,,,,,
433,33.85502003862359,-84.61392705828587,Presbyterian Village - Hearthstone,2000 East-West Connector,,Austell,GA,30106,,,,,
434,34.18967799284695,-84.31500359012108,Providence Assisted Living of Milton,17210 Birmingham Highway,,Alpharetta,GA,30004,,,,,
435,34.093926805491094,-84.30688606819035,Providence of Alpharetta,12775 Providence Road,,Alpharetta,GA,30009,,,,,
436,33.8498934986124,-83.95057570490576,Re-Creation of Hope,3600 Brushy Wood Drive,,Loganville,GA,30052,,,,,
437,33.73482203953563,-84.16831969840365,Rejuvenate - Eden PCH,1918 Panola Road,,Lithonia,GA,30058,,,,,
438,33.67968607058856,-83.99093623005274,Remington House,1504 Renaissance Drive,,Conyers,GA,30012,,,,,
439,33.856788124062746,-84.34925603452217,Renaissance On Peachtree,"3755 Peachtree Road, N.E.",,Atlanta,GA,30319,,,,,
440,33.8764579830555,-84.64593831555862,Rhema Personal Care Facilities,3144 Macedonia Road,,Powder Springs,GA,30127,,,,,
441,33.707240849893594,-84.24128310176025,Ritchglow Personal Care Home,2717 Rainbow Forest Drive,,Decatur,GA,30034,,,,,
442,33.71935753396906,-84.40857778127861,Rosemaude Personal Care Home,"642 Erin Avenue, SW",,Atlanta,GA,30310,,,,,
443,34.06771006737466,-84.3268822820329,Roswell Senior Living - Pacifica,11725 Pointe Place,,Roswell,GA,30076,,,,,
444,33.61745398864349,-83.97789286912479,"Rubys Personal Home Care, LLC",2117 Fieldstone View Court SE,,Conyers,GA,30013,,,,,
445,33.84436939396829,-84.34180972886867,Safe Haven at Lenox Park,1137 Lynmoor Drive,,Atlanta,GA,30319,,,,,
446,33.847676913414205,-84.0050276010104,Samuda's Personal Care Home,2752 Skyland Drive,,Snellville,GA,30078,,,,,
447,33.924776137587514,-84.37781209110392,Sandy Springs Assisted Living,"300 Johnson Ferry Road, N.E.",,Sandy Springs,GA,30328,,,,,
448,34.11303697657081,-84.57713822062459,Savannah Grand,1835 Eagle Drive,,Woodstock,GA,30189,,,,,
449,34.08622863489768,-84.06729581031533,Savannah Plantation PCH,102 Level Creek Road,,Buford,GA,30518,,,,,
450,33.837701552894885,-84.00824923881862,Scepter Living Center of Snellville LLC,3000 Lenora Church Road,,Snellville,GA,30078,,,,,
451,33.826423394962376,-84.06190563808082,Schnora's Happy Home,2690 Shady Hill Court,,Snellville,GA,30039,,,,,
452,34.11268056277703,-84.03736365382213,Senior Care America,1165 Hillcrest Glenn Circle,,Sugar Hill,GA,30518,,,,,
453,34.0469087314255,-84.00870155697385,Senior Care America II,828 Rock Springs Road,,Lawrenceville,GA,30043,,,,,
454,33.805207826346305,-84.0049140165682,Serenity 1 Personal Care Home,3967 Lenora Church Road,,Snellville,GA,30039,,,,,
455,33.521185861491404,-84.3331201865006,Serenity House,8599 Sheridan Drive,,Jonesboro,GA,30236,,,,,
456,33.945427675185556,-84.20443676851613,Shekinah Home,519 Lawrenceville Street,,Norcross,GA,30071,,,,,
457,33.577501550486545,-84.50456579983847,Sillah Group Home,3510 Rockfort Drive,,College Park,GA,30349,,,,,
458,33.85619703674587,-84.03514708007856,Silverleaf of Snellville,2106 McGee Road,,Snellville,GA,30078,,,,,
459,33.54913084129788,-84.43165857517135,South Haven II,1335 Lake Ridge Parkway,,Riverdale,GA,30296,,,,,
460,33.57805554754418,-84.44850701504828,South Haven Personal Care Home,6490 West Fayetteville Road,,Riverdale,GA,30296,,,,,
461,33.557050732584855,-84.5225994719305,Sparks Inn at Christian City,7290 Lester Road,,Union City,GA,30291,,,,,
462,33.78858559215388,-84.01059192564708,Spring Garden Personal Care Home,3361 Glen Summit Lane,,Snellville,GA,30039,,,,,
463,33.75815876339158,-84.44099904086272,Spring Lane Personal Care Home,1570 Spring Lane NW,,Atlanta,GA,30314,,,,,
464,34.05665380341611,-84.38354190458608,St. George Village - Wellington Court,11350 Woodstock Road,,Roswell,GA,30075,,,,,
465,34.027872078329096,-84.18949109487204,St. Ives Memory Care,5835 Medlock Bridge Parkway,,Alpharetta,GA,30022,,,,,
466,33.902226163772355,-84.36949661022805,Summers Landing Northland Assisted Living,5399 Northland Drive,,Atlanta,GA,30342,,,,,
467,33.93617607832846,-84.29381355597559,Summer's Landing Tilly Mill,4821 North Peachtree Road,,Dunwoody,GA,30338,,,,,
468,33.73987993596603,-84.50862251115166,Summerset Assisted Living Community,3711 Benjamin E. Mays Drive,,Atlanta,GA,30331,,,,,
469,33.85014195151763,-84.34854317268668,Sunrise at Buckhead,"1000 Lenox Park Boulevard, N.E.",,Atlanta,GA,30319,,,,,
470,33.87006198967367,-84.09011076057664,Sunrise at Five Forks,3997 Five Forks Trickum Road,,Lilburn,GA,30047,,,,,
471,33.578827298375074,-84.28379653151194,Sunset Nellee,6420 Bennett Drive,,Rex,GA,30273,,,,,
472,34.060870128730926,-83.88905659152334,Sunshine Residential Care,3949 Pine Gorge Circle,,Dacula,GA,30019,,,,,
473,33.99560738598461,-84.28204334939102,Tapestry House,2725 Holcomb Bridge Road,,Alpharetta,GA,30022,,,,,
474,33.789183358352375,-84.0445026900191,Tender Care Assisted Living at Snellville,3922 Centerville Highway #124,,Snellville,GA,30039,,,,,
475,33.974815058983495,-84.04540059992036,Tender Care Personal Care Home,1560 Twin Bridge Lane,,Lawrenceville,GA,30043,,,,,
476,33.99070164186787,-84.03148131674328,Terris Personal Care Home,1680 Lawrenceville - Suwanee Road,,Lawrenceville,GA,30043,,,,,
477,33.977661609156826,-84.00320375593435,The Bridges Assisted Living of Lawrenceville,220 Collins Industrial Way,,Lawrenceville,GA,30043,,,,,
478,33.9282270477583,-84.36367357180569,The Carlton,690 Mt. Vernon Highway,,Atlanta,GA,30328,,,,,
479,34.03701098836194,-84.23425852935497,The Cohen Home,10485 Jones Bridge Road,,Alpharetta,GA,30022,,,,,
480,33.94256401585619,-83.9576181918377,The Cottage Senior Living,818 Round Tree Court,,Lawrenceville,GA,30045,,,,,
481,33.77156304152294,-84.47365968777717,The Home Place PCH,602 Hamilton E. Holmes Drive  NW,,Atlanta,GA,30318,,,,,
482,33.716659593262136,-84.66896324068938,The Lake House at Legion Lake,2928 Legion Lake Road,,Douglasville,GA,30135,,,,,
483,33.918622818267124,-84.58579291102484,The Lemon Tree,1060 Murray Circle,,Marietta,GA,30064,,,,,
484,33.816733059301555,-84.30592934140554,The Montclair at Clairmont Place,2100 Clairmont Lake,,Decatur,GA,30033,,,,,
485,33.73270548231619,-84.34952038006503,"The Providers, Inc.",799 Moreland Avenue,,Atlanta,GA,30316,,,,,
486,34.03579337862925,-84.44585367768985,TLC Family Home,3605 Shallowford Road,,Marietta,GA,30062,,,,,
487,33.56198546067253,-84.43670196816862,Truly Living Well Personal Care Home,7078 Bethel Court,,Riverdale,GA,30296,,,,,
488,33.729625171146836,-84.20432960057826,Tudor Castle Personal Care Home,2056 Tudor Castle Circle,,Decatur,GA,30035,,,,,
489,33.660757743381794,-84.31732257735507,Universal Healthcare Service,1766 Enclave Place,,Conley,GA,30288,,,,,
490,33.739311678287095,-84.04909725350751,Vanderpoole's Senior Living Center,1718 Mossy Rock Cove,,Lithonia,GA,30058,,,,,
491,33.90475694081772,-84.56515325356133,Velvet Manor PCH 1,"2000 Austell Road, Building 500, Units 511-515",,Marietta,GA,30008,,,,,
492,33.90475694081772,-84.56515325356133,Velvet Manor PCH 2,"2000 Austell Road, Building 500, Units 501 - 505",,Marietta,GA,30008,,,,,
493,33.670554093869214,-84.46304555086664,Vincent's Village Personal Care,3113 Washington Road,,East Point,GA,30344,,,,,
494,33.94438000217184,-83.95250095253795,Vital Place,985 Waldwick Drive,,Lawrenceville,GA,30045,,,,,
495,33.822149641037925,-83.95117177138326,We Care 2 Personal Care Home,1483 Virgil Pond Lane,,Loganville,GA,30052,,,,,
496,33.79882060832267,-83.97038836513946,Welcome Home PCH,2366 Centerville Rosebud Road,,Loganville,GA,30052,,,,,
497,33.59467272024375,-84.56861987283452,Welcome Home Personal Care Home,5780 Rock Road,,Union City,GA,30291,,,,,
498,33.30592371653961,-84.40601552708915,Welcoming Arms,210 Crabapple Road,,Fayetteville,GA,30215,,,,,
499,33.87314280146637,-84.62495399270256,WellCare Assisted Living,2433 Powder Springs Road,,Marietta,GA,30064,,,,,
500,33.803174237443216,-84.33305561006085,Wesley Woods Towers,"1825 Clifton Road, N.E.",,Atlanta,GA,30329,,,,,
501,33.95240351208378,-84.55532501960914,Winnwood Retirement Community - Sullivan House,100 Whitlock Avenue,,Marietta,GA,30064,,,,,
502,34.085819283593196,-84.5221989950494,Woodstock Estates,1000 Professional Way,,Woodstock,GA,30188,,,,,
503,33.709973661115896,-84.10865367559768,Yellow Brick House,6903 Main Street,,Lithonia,GA,30058,,,,,
504,33.61737508318333,-84.58827276630774,Yellow Brick Road PCH,5063 Upper Elm Street,,Atlanta,GA,30349,,,,,
505,33.6622936073847,-84.21367205717263,A Comforting Home LLC,4039 English Valley Drive,,Ellenwood,GA,30294,,,,,
506,33.643629971513064,-84.14079423819857,A Place To Call Home,6014 Idelwood Trace,,Lithonia,GA,30038,,,,,
507,33.54295512429201,-84.39316897616663,Angels Royal Gardens Personal Care Home,7752 Marabou Lane,,Riverdale,GA,30274,,,,,
508,33.84762546715643,-84.13019743822991,Beverly House - Hi Hope Services Center,1093 Lanford Circle,,Lilburn,GA,30047,,,,,
509,33.50586580753014,-84.22492930684649,"Brightstar Homes and Services, Inc","175 Country Club Drive, Ste. 200F",,Stockbridge,GA,30281,,,,,
510,33.820481231062956,-84.67800755672096,Changing Lives Today #2,5448 Sweet Springs Drive,,Powder Springs,GA,30127,,,,,
511,33.83845289707699,-84.24757236441349,DBHDD Office Region Three,100 Crescent Centre Pky Suite 900,,Tucker,GA,30084,,,,,
512,33.995518701772994,-84.28236524985073,enAble of Georgia at Holcomb Bridge,2720 Holcomb Bridge,,Alpharetta,GA,30022,,,,,
513,33.69331739710162,-84.47425100101066,"enAble of Georgia, Inc.",2265 Dodson Drive,,East Point,GA,30344,,,,,
514,34.029401066724915,-84.3417572691369,enAble of Georgia at Grimes Place,505/515 Grimes Place,,Alpharetta,GA,30022,,,,,
515,33.78883008971775,-84.19980317303117,Faith Dwellings,4666 Randalwood Drive,,Stone Mountain,GA,30083,,,,,
516,33.72586600578512,-84.15557022401265,FAM Personal Care Home,5618 Wellborn Creek Drive,,Lithonia,GA,30058,,,,,
517,34.00643407845831,-83.89412462787323,Gentility Personal Care Home,2803 Austin Ridge Drive,,Dacula,GA,30019,,,,,
518,33.753809986920544,-84.3903984824816,Healthcare Facility Regulation Division - CLA Facility Locator,2 Peachtree Suite 31-447,,Atlanta,GA,30303,,,,,
519,33.52649534157405,-84.4048074427094,Home Away From Home Personal Care Homes,8412 Red Cedar Way,,Riverdale,GA,30274,,,,,
520,33.73841761845398,-84.43765617285169,Jimmys Magnolia Tree,"1526 Westwood Avenue, SW",,Atlanta,GA,30310,,,,,
521,33.78284023926943,-84.01677146127633,Kind Hearts Personal Care,3676 Lee Road,,Snellville,GA,30039,,,,,
522,33.806783727376626,-84.72402935032437,Malamav Personal Care Home,6183 Burnt Hickory Road,,Powder Springs,GA,30127,,,,,
523,33.8806991683939,-84.63295399815212,Life Choice II,2728 Old Horseshoe Bend,,Marietta,GA,30064,,,,,
524,33.865030893475534,-84.02617692955505,Oak Manor,1985 Oak Road,,Snellville,GA,30078,,,,,
525,33.69132281096148,-84.17314162038258,"Panola Care, Inc.",3169 Pequea Drive,,Lithonia,GA,30038,,,,,
526,33.460785878291915,-84.34536160431736,Paradise Grove Adult Care Center,10854 Paladin Drive,,Hampton,GA,30228,,,,,
527,33.7867195905269,-84.00059612689421,Parkside,3254 Lee Road,,Snellville,GA,30039,,,,,
528,33.75557833502563,-84.11498871939023,Peace Personal Care Home,1352 Regal Height Drive,,Lithonia,GA,30058,,,,,
529,33.768073520255996,-84.20112003673518,Reprah Personal Care Home,927 Granite Springs Lane,,Stone Mountain,GA,30083,,,,,
530,33.474964163568245,-84.44951150271919,Sanzie CLA Care Services,"290 Highway 314, Suite C",,Fayetteville,GA,30214,,,,,
531,33.66234096998687,-84.47777572613,Southern International Living,3437 Mount Olive Road,,East Point,GA,30344,,,,,
532,33.93957269034763,-83.81711605867702,The Shoals,3905 Indian Shoals Road,,Bethlehem,GA,30620,,,,,
533,33.99704722403021,-84.03549009579041,Willis House,1895 Lawrenceville-Suwanee Road,,Lawrenceville,GA,30043,,,,,
534,34.16681423559095,-84.57018883722145,Alexander Ridge Apartment,102 Alexander Drive,,Canton,GA,30114,,,,,
535,34.07370188329509,-84.67722690652386,Amberlake Apartments,4901 Cherokee Street,,Acworth,GA,30101,,,,,
536,33.661658996027825,-84.01040045670396,Arbor Creek Apartments,1076 South Main Street,,Conyers,GA,30012,,,,,
537,33.93605662253242,-84.18854513039105,Audubon Creek,"1111 Ambers Drive, N.W.",,Norcross,GA,30071,,,,,
538,34.01029927346207,-84.18264964132425,Avonlea on the River,6015 State Bridge Road,,Duluth,GA,30097,,,,,
539,33.79684714194502,-84.24719893440869,Barrington Apartments,750 Northern Avenue,,Clarkston,GA,30021,,,,,
540,34.24720437099489,-84.48000023968734,Blue Ridge Hills Apartments,101 Tiffany Lane,,Canton,GA,30114,,,,,
541,33.45058093100772,-84.4718539477538,Brandywine at LaFayette Apartment Homes,160 Belle Drive,,Fayetteville,GA,30214,,,,,
542,33.75529206342526,-84.73323938946726,Brighton Manor Apartment Townhomes,6140 Cooper Street,,Douglasville,GA,30134,,,,,
543,33.43391364506397,-84.18389523980409,Brookshire Apartments,23 Brookshire Circle,,McDonough,GA,30253,,,,,
544,33.71036888885919,-84.76976835839298,Brookvalley Apartments,3492 Highway 5,,Douglasville,GA,30135,,,,,
545,33.7497115398956,-84.73066251414855,Brookview Apartments,8460 Hospital Drive,,Douglasville,GA,30134,,,,,
546,34.19835363178788,-84.50765788468516,Canterbury Ridge Apartments,101 Canterbury Ridge Parkway,,Canton,GA,30114,,,,,
547,34.24470356240573,-84.48549924568857,Canton Mill Lofts,550 Riverstone Parkway,,Canton,GA,30114,,,,,
548,33.89425492316076,-84.52914534931097,Carriage House,810 Windy Hill Road,,Smyrna,GA,30080,,,,,
549,33.88784837177235,-84.56776441141636,Caswyck Trail,2665 Favor Road,,Marietta,GA,30060,,,,,
550,33.89749714204493,-84.5418640562014,Centerview Terrace Apartments,2300 Benson Pool Road,,Smyrna,GA,30082,,,,,
551,33.74717971711215,-84.75979559171611,Columbia Gardens,7101 West Strickland Street,,Douglasville,GA,30134,,,,,
552,33.73904062884981,-84.25517611292287,Columbia Place Apartments,1776 South Columbia Place,,Decatur,GA,30032,,,,,
553,33.75103229896928,-84.7549561023261,Douglasville Proper,8424 Chicago Avenue,,Douglasville,GA,30134,,,,,
554,33.9558877673789,-84.50250100321892,Elmwood Apartments,1705 Roswell Road,,Marietta,GA,30062,,,,,
555,33.956365333472036,-84.54330273236422,Fort Hill,210 Cole Street,,Marietta,GA,30060,,,,,
556,33.92376200927396,-84.47101810115919,Gardens of East Cobb,2850 Delk Road S.E.,,Marietta,GA,30067,,,,,
557,33.82776892675929,-84.34134759383414,GeorgiaHousingSearch.org - Department of Community Affairs,"60 Executive Park South, N. E.",,Atlanta,GA,30329,,,,,
558,34.08203280281322,-84.57729425829785,Gregory Lane,466 Gregory Lane,,Acworth,GA,30102,,,,,
559,33.90636206514591,-84.1818570879035,Harbinwood,1295 Harbins Road,,Norcross,GA,30093,,,,,
560,34.181893973982085,-84.50003931943252,Harbor Creek Apartments,501 Harbor Creek Parkway,,Canton,GA,30115,,,,,
561,33.57331474274963,-84.40341769217423,Harmony Pines Apartments,363 Upper Riverdale Road,,Riverdale,GA,30274,,,,,
562,34.0914965596229,-84.01745006015341,Hartford Run,102 Hartford Run,,Buford,GA,30518,,,,,
563,34.25783244406739,-84.48754254340679,Heritage at Riverstone,101 Heritage Drive,,Canton,GA,30114,,,,,
564,33.74462806482376,-84.69934974397614,Home Ridge Apartments,2281 Midway Road,,Douglasville,GA,30135,,,,,
565,33.519444325014774,-84.35393929833316,Keystone Apartments,145 South McDonough Street,,Jonesboro,GA,30236,,,,,
566,34.25077038959125,-84.48680545362157,Lakeview Apartments,383 Lakeview Drive,,Canton,GA,30114,,,,,
567,34.058276610216126,-84.69327767151015,Laurel Glen,4191 Lake Acworth Drive,,Acworth,GA,30101,,,,,
568,34.22441365380712,-84.4742537961339,Laurels at Greenwood,1215 Greenwood Drive,,Canton,GA,30115,,,,,
569,34.08784736208213,-84.51447663849785,Laurelwood Apartments,106 Meadow Street,,Woodstock,GA,30188,,,,,
570,33.894540195060586,-84.14492836864116,Lilburn Terrace,420 Hillcrest Road NW,,Lilburn,GA,30047,,,,,
571,33.78648186271096,-84.61557303587273,Madison at Waterford,670 Thornton Road,,Lithia Springs,GA,30122,,,,,
572,33.7613781745726,-84.42685164307267,Magnolia Trace Apartments,228 Troy Street; #2,,Atlanta,GA,30314,,,,,
573,34.03758758032757,-84.32564970146552,Manchester at Mansell  Apartments,401 Huntington Drive,,Roswell,GA,30076,,,,,
574,33.938658603351485,-84.19368468556922,Meadowood,208 Meadowood Common,,Norcross,GA,30071,,,,,
575,33.93461243231525,-83.9960242474857,Longleaf,775 Longleaf Drive SW,,Lawrenceville,GA,30045,,,,,
576,33.81391494902891,-84.5933998419008,Mableton Village Apartments,1306 Old Powder Springs,,Mableton,GA,30126,,,,,
577,33.82035078523904,-84.44908563430374,Moores Mill Village Apartment Homes,"2453 Coronet Way, NW",,Atlanta,GA,30318,,,,,
578,33.58410793898628,-84.53124304552603,Oakley Woods,6300 Oakley Road,,Union City,GA,30291,,,,,
579,33.728085758373425,-84.75200315895893,Parkwood Village Apartments,6804 Parkway Drive,,Douglasville,GA,30135,,,,,
580,33.59402440350016,-84.54943973020784,Premier Club Apartments,5100 Highpoint Road,,Union City,GA,30291,,,,,
581,33.51802902851347,-84.36643145397977,Riverwood Townhouses,681 Flint River Road,,Jonesboro,GA,30238,,,,,
582,33.43892640242768,-84.1586272942339,Sable Chase Apartments,102 Sable Chase Boulevard,,McDonough,GA,30253,,,,,
583,33.8073074544364,-84.19332180321305,Shadow Trace Apartments,105 Trace Terrace,,Stone Mountain,GA,30083,,,,,
584,33.70979859860881,-84.20410045505088,Snapwoods,4521 Snapfinger Woods Drive,,Decatur,GA,30035,,,,,
585,33.77405991168814,-84.38489358514016,Solace on Peachtree,"710 Peachtree Street, NE",,Atlanta,GA,30308,,,,,
586,33.54942621297397,-84.34845859562779,Southlake Cove,7509 Jonesboro Road,,Jonesboro,GA,30236,,,,,
587,33.59086786849895,-84.32152948202281,Southwood Apartments,6001 Trammell Road,,Morrow,GA,30260,,,,,
588,33.71409229513921,-84.75872657018601,Stewarts Mill Landing,3421 West Stewart's Mill Road,,Douglasville,GA,30135,,,,,
589,33.90475694081772,-84.56515325356133,Summerhill,2000 Austell Road,,Marietta,GA,30008,,,,,
590,33.79467042743221,-84.62090810799691,Sweetwater Creek,99 Creekside Circle,,Austell,GA,30168,,,,,
591,33.449100138410245,-84.43719163791894,Swanbrook Manor Apartments,755 East Lanier Avenue,,Fayetteville,GA,30215,,,,,
592,33.95201392197214,-84.57789022058495,The Magnolia at Whitlock,925 Whitlock Avenue,,Marietta,GA,30064,,,,,
593,34.10881710553474,-84.53887501677104,The Pointe at Towne Lake,50 Paces Parkway,,Woodstock,GA,30189,,,,,
594,33.436977526997566,-84.58619763918443,The Retreat at Peachtree City,1600 Barberry Lane,,Peachtree City,GA,30269,,,,,
595,34.10366320714934,-84.54979135696357,The Terraces at Towne Lake,1345 Towne Lake Hills South Drive,,Woodstock,GA,30189,,,,,
596,33.37990084582066,-84.55213532964393,Towne Club at Peachtree City,201 Crosstown Drive,,Peachtree City,GA,30269,,,,,
597,33.7304083519025,-84.1930800017401,Valley Field,5421 Covington Highway,,Decatur,GA,30035,,,,,
598,33.53070154628091,-84.42029847858703,Vineyard Pointe,8213 Highway 85,,Riverdale,GA,30274,,,,,
599,34.08342980399857,-84.57776819952676,Waldan Pond Apartments,450 Waldan Circle,,Acworth,GA,30102,,,,,
600,33.78195376082658,-84.60248390328718,Walton Reserve Apartment Homes,7075 Walton Reserve Lane,,Austell,GA,30168,,,,,
601,33.99454044731351,-84.59031750709153,Walton Ridenour Apartments,1425 Ridenour Boulevard,,Kennesaw,GA,30152,,,,,
602,33.45186820977028,-84.43236562662258,Weatherly Walk Apartments,100 Knight Way,,Fayetteville,GA,30214,,,,,
603,33.90511351871419,-84.14852912391456,Westbury Springs,4853 Burns Road,,Lilburn,GA,30047,,,,,
604,34.09901202484656,-84.51354353800923,Whispering Trace Townhomes,133-A  Bentley Parkway,,Woodstock,GA,30188,,,,,
605,33.81144908848239,-84.18818262340761,Willow Run Apartments,4941 Central Drive,,Stone Mountain,GA,30083,,,,,
606,34.098969212994746,-84.00094076974602,Windridge Apartments,2000 Windridge Drive,,Buford,GA,30518,,,,,
607,33.40834885527755,-84.5994585108379,Woodsmill Apartments,102 Woodsmill Road,,Peachtree City,GA,30269,,,,,
608,33.85683178033099,-84.3496835883671,Canterbury Court,"3750 Peachtree Road, N.E.",,Atlanta,GA,30319,,,,,
609,33.55682110485145,-84.52277532343129,Christian City,7300 Lester Road,,Union City,GA,30291,,,,,
610,33.85647455099354,-84.34966082607195,Lenbrook,"3747 Peachtree Road, NE",,Atlanta,GA,30319,,,,,
611,33.8149798790472,-84.12247334536107,Park Springs,500 Spring House Circle,,Stone Mountain,GA,30087,,,,,
612,33.81795709378986,-84.38123915531997,Peachtree Hills Place,12 Kings Circle NE,,Atlanta,GA,30305,,,,,
613,33.85502003862359,-84.61392705828587,Presbyterian Village,2000 East-West Connector,,Austell,GA,30106,,,,,
614,33.99486682695448,-84.5898538874581,Alta Ridenour Apartments,1355 Ridenour Boulevard,,Kennesaw,GA,30152,,,,,
615,33.73825145825282,-84.19667719606065,Antioch Manor Estates,4711 Bishop Ming Boulevard,,Stone Mountain,GA,30088,,,,,
616,33.894800672745305,-84.32532096250986,Ashford Landing Senior Residences - Johnson Ferry East,3521 Blair Circle NE,,Atlanta,GA,30319,,,,,
617,33.9391532224854,-84.01770996259177,Ashton Senior Living,1155 Lawrenceville Highway,,Lawrenceville,GA,30046,,,,,
618,33.620068765664485,-84.37618643516072,Ashton Walk Apartments,4950 Governors Drive,,Forest Park,GA,30297,,,,,
619,33.970249370719046,-84.5547859128788,Atherton Place,111 Tower Road,,Marietta,GA,30060,,,,,
620,33.51840885332456,-84.68733497732484,Baptist Manor,519 Perkins Road,,Palmetto,GA,30268,,,,,
621,33.74111566271188,-84.51141264905596,Big Bethel Village,"500 Richard Allen Boulevard, SW",,Atlanta,GA,30331,,,,,
622,33.85683178033099,-84.3496835883671,Canterbury Court,"3750 Peachtree Road, N.E.",,Atlanta,GA,30319,,,,,
623,34.04515165648468,-84.34476506145415,Chambrel at Roswell,1000 Applewood Drive,,Roswell,GA,30076,,,,,
624,33.55682110485145,-84.52277532343129,Christian City,7300 Lester Road,,Union City,GA,30291,,,,,
625,33.80853711019637,-84.30952323414567,Clairmont Crest,1861 Clairmont Road,,Decatur,GA,30033,,,,,
626,33.71101527619754,-84.3888026973795,Columbia Blackshear Senior Residences,"14 Meldon Avenue, SW",,Atlanta,GA,30315,,,,,
627,33.685099628897376,-84.49247781236147,Columbia Colony,2999 Continental Colony Parkway,,Atlanta,GA,30331,,,,,
628,33.79531131982111,-84.45071775007443,Columbia Heritage Senior Residences,1900 Perry Boulevard,,Atlanta,GA,30318,,,,,
629,33.71590914578479,-84.3954613113682,Columbia High Point,"220 Bowen Circle, SW",,Atlanta,GA,30315,,,,,
630,33.749495865286576,-84.47480486515951,Columbia Park Commons Apartments,180 Peyton Place SW,,Atlanta,GA,30311,,,,,
631,33.9542294962464,-84.54689401533204,Columbia Retreat at Dorsey Manor,118 Haynes Street,,Marietta,GA,30060,,,,,
632,33.758269352998525,-84.34665095357963,Columbia Senior Residences at Edgewood,"1281 Caroline Street, NE",,Atlanta,GA,30307,,,,,
633,33.740222077749934,-84.40259956233018,Columbia Senior Residences at Mechanicsville,"555 McDaniel Street, SW",,Atlanta,GA,30312,,,,,
634,33.95515850542989,-84.5469606681005,Columbia Tower at Dorsey Manor,212 Lemon Street,,Marietta,GA,30060,,,,,
635,33.79393171923323,-84.2776011517451,Coventry Place,2806 North Decatur Road,,Decatur,GA,30033,,,,,
636,33.939491672858935,-84.10011393510524,Delmar Gardens of Gwinnett,3100 Club Drive,,Lawrenceville,GA,30044,,,,,
637,33.92287485176081,-84.3178361105355,Dunwoody Pines,4355 Georgetown Square Road,,Atlanta,GA,30338,,,,,
638,33.977635246182956,-84.00388495635042,Garden Plaza at Lawrenceville,230 Collins Industrial Way,,Lawrenceville,GA,30043,,,,,
639,33.74115016764074,-84.36322376831725,GlenCastle Apartments,750 Glenwood Avenue,,Atlanta,GA,30316,,,,,
640,33.91895937710501,-84.37644962741484,Hammond Glen,"335 Hammond Drive, N.E.",,Sandy Springs,GA,30328,,,,,
641,33.38088935228734,-84.26835090277228,Hampton Court,100 South Hampton Road,,Hampton,GA,30228,,,,,
642,33.89030105781171,-84.32017646446235,Hearthside Brookleigh,2282 Johnson Ferry Road,,Atlanta,GA,30319,,,,,
643,33.837389388780764,-84.31389654474805,Kings Bridge Retirement Center,"3055 Briarcliff Road, N.E.",,Atlanta,GA,30329,,,,,
644,34.103087815859,-84.00167752835961,Lake Springs,4355 South Lee Street,,Buford,GA,30518,,,,,
645,33.88984110620743,-84.0577661472015,Laurel Grove,2899 Five Forks Trickum Road,,Lawrenceville,GA,30044,,,,,
646,33.914408783721456,-84.55743421371716,Legacy at Walton Village,1570 Roberta Drive,,Marietta,GA,30008,,,,,
647,33.85647455099354,-84.34966082607195,Lenbrook,"3747 Peachtree Road, NE",,Atlanta,GA,30319,,,,,
648,33.7103596082236,-84.44754349303838,Lillie R. Campbell Housing Facility,1830 Campbellton Road,,Atlanta,GA,30311,,,,,
649,33.924776137587514,-84.37781209110392,Mount Vernon Towers,"300 Johnson Ferry Road, N.E.",,Sandy Springs,GA,30328,,,,,
650,33.924741152545096,-84.37151392142829,Mount Vernon Village,"475 Mount Vernon Highway., N.E.",,Sandy Springs,GA,30328,,,,,
651,34.04807631883659,-84.30415255500702,Parc Alpharetta,1000 Fanfare Way,,Alpharetta,GA,30009,,,,,
652,34.01348069425978,-84.16650416411397,Parc at Duluth,3315 Peachtree Industrial Boulevard,,Duluth,GA,30096,,,,,
653,33.97428989247214,-84.47782919272959,Parc at Piedmont,"999 Hood Road, NE",,Marietta,GA,30068,,,,,
654,33.749495865286576,-84.47480486515951,Park Commons Apartments,"180 Peyton Place, SW",,Atlanta,GA,30311,,,,,
655,33.8149798790472,-84.12247334536107,Park Springs Continuing Care Retirement Community,500 Spring House Circle,,Stone Mountain,GA,30087,,,,,
656,33.861302156142415,-84.60245086397947,Parkland Manor,3755 Medical Park Drive,,Austell,GA,30106,,,,,
657,33.68408078135366,-84.50184663213406,Park View at Coventry Station,3381 Greenbriar Parkway SW,,Atlanta,GA,30332,,,,,
658,33.85502003862359,-84.61392705828587,Presbyterian Village,2000 East-West Connector,,Austell,GA,30106,,,,,
659,33.78579445273829,-84.27919403978865,Regency House,341 Winn Way,,Decatur,GA,30030,,,,,
660,33.67968607058856,-83.99093623005274,Remington House,1504 Renaissance Drive,,Conyers,GA,30012,,,,,
661,33.856788124062746,-84.34925603452217,Renaissance On Peachtree,"3755 Peachtree Road, N.E.",,Atlanta,GA,30319,,,,,
662,33.8404587329033,-84.41962286425462,Saint Annes Terrace,"3100 Northside Parkway, N.W.",,Atlanta,GA,30327,,,,,
663,33.33587524583618,-84.10720636367233,Shoal Creek Manor,120 L.G. Griffin Road,,Locust Grove,GA,30248,,,,,
664,34.05033980197834,-84.30656820088723,Somerby of Alpharetta,100 Somerby Drive,,Alpharetta,GA,30009,,,,,
665,33.98799696060104,-84.35134261313243,Sunrise Huntcliff Summit I,8592 Roswell Road,,Sandy Springs,GA,30350,,,,,
666,33.94496828202438,-84.12149341017908,Sweetwater Terraces,3555 Sweetwater Road,,Duluth,GA,30096,,,,,
667,33.853202132789704,-84.36534213750997,The Hallmark Buckhead,"650 Phipps Boulevard, NE",,Atlanta,GA,30326,,,,,
668,33.66207566007648,-84.53783445316003,The Legacy at Walton Lakes,4687 Camp Creek Parkway,,Atlanta,GA,30331,,,,,
669,34.19283210168737,-84.53829338173375,The Lodge at Bridgemill,10451 Bells Ferry Road,,Canton,GA,30114,,,,,
670,33.75056972508196,-84.229061148678,The Retreat at Madison Place,3907 Redwing Circle,,Decatur,GA,30035,,,,,
671,33.5344156596492,-84.30468416935457,The Palms at Lake Spivey,8080 Summit Business Parkway,,Lake Spivey,GA,30236,,,,,
672,33.37990084582066,-84.55213532964393,Towne Club at Peachtree City,201 Crosstown Drive,,Peachtree City,GA,30269,,,,,
673,33.803174237443216,-84.33305561006085,Wesley Woods Towers,"1825 Clifton Road, N.E.",,Atlanta,GA,30329,,,,,
674,33.95240351208378,-84.55532501960914,Winnwood Retirement Community Teem Building,100 Whitlock Avenue,,Marietta,GA,30064,,,,,
675,33.73594643139063,-84.42249199273095,Abernathy Towers,1059 Oglethorpe Avenue,,Atlanta,GA,30310,,,,,
676,33.84306935806501,-84.26233522895541,"AHEPA One, Inc.",2025 Ludovie Lane,,Decatur,GA,30033,,,,,
677,33.91365300835048,-84.38188837715086,Allen Road Midrise,"144 Allen Road, NE",,Sandy Springs,GA,30328,,,,,
678,33.73825145825282,-84.19667719606065,Antioch Manor Estates,4711 Bishop Ming Boulevard,,Stone Mountain,GA,30088,,,,,
679,33.94450466787998,-83.98129226336476,Applewood Towers I,180 Applewood Drive,,Lawrenceville,GA,30046,,,,,
680,33.94374006203287,-83.98220629756577,Applewood Towers II,150 Applewood Drive,,Lawrenceville,GA,30046,,,,,
681,33.94404580564856,-83.98143606018772,Applewood Towers III,170 Applewood Drive,,Lawrenceville,GA,30046,,,,,
682,33.68242643148392,-84.49397890439019,Asbury Harris Epworth Towers,3033 Continental Colony Parkway,,Atlanta,GA,30331,,,,,
683,33.894800672745305,-84.32532096250986,Ashford Landing Senior Residences - Johnson Ferry East,3521 Blair Circle NE,,Atlanta,GA,30319,,,,,
684,33.88572709781181,-84.61849293451132,Ashton Arbors,2780 Bankstone Drive,,Marietta,GA,30064,,,,,
685,33.620068765664485,-84.37618643516072,Ashton Walk Apartments,4950 Governors Drive,,Forest Park,GA,30297,,,,,
686,33.74295621493786,-84.41774177147556,Atrium at College Town,435 Joseph E. Lowery Boulevard SW,,Atlanta,GA,30310,,,,,
687,33.77772971549689,-84.47730566842984,Avalon Park,"2748 Donald Lee Hollowell Pkwy, NE",,Atlanta,GA,30318,,,,,
688,33.70436558215857,-84.45514809997354,Baptist Towers,"1881 Myrtle Drive, S.W.",,Atlanta,GA,30311,,,,,
689,33.6880160788204,-84.50609920157217,Barge Road Apartments,"2440 Barge Road, S.W.",,Atlanta,GA,30331,,,,,
690,34.06933313410798,-84.64946259638748,Barrington Square,4700 Baker Grove Road,,Acworth,GA,30101,,,,,
691,33.89728765823577,-84.54195671526787,Benson Manor,2348 Benson Poole Road,,Smyrna,GA,30082,,,,,
692,33.7489126926111,-84.43449804719614,Berean Village and Senior Services Center,230 Westview Place,,Atlanta,GA,30314,,,,,
693,33.74032282831496,-84.34799646018399,Branan Towers,"1200 Glenwood Avenue, S.E.",,Atlanta,GA,30316,,,,,
694,33.83670824055105,-84.31640687785296,Briarcliff Oaks,"2982 Briarcliff Road, N.E.",,Atlanta,GA,30329,,,,,
695,33.77395469622354,-84.35297959092645,Briarcliff Summit Apartments,1050 Ponce de Leon Avenue,,Atlanta,GA,30306,,,,,
696,33.83822073318106,-84.372173629793,"Calvin Court, Inc.","479 East Paces Ferry Road, NE",,Atlanta,GA,30305,,,,,
697,33.8349552088867,-84.38568320271656,Campbell-Stone Buckhead,"2911 Pharr Court South, N.W.",,Atlanta,GA,30305,,,,,
698,33.91516953278557,-84.37604565191913,Campbell-Stone Sandy Springs,"350 Carpenter Drive, NE",,Atlanta,GA,30328,,,,,
699,33.732946592284634,-84.38806953226339,Capitol Avenue School Apartments,"811 Hank Aaron Drive, SW",,Atlanta,GA,30315,,,,,
700,33.73214086966675,-84.38926747896443,Capitol Towers Apartments,830 Crew Street,,Atlanta,GA,30315,,,,,
701,33.831684226616744,-84.38557476548056,Cathedral Towers,"2820 Peachtree Road, N.W.",,Atlanta,GA,30305,,,,,
702,33.81402147124027,-84.35374759155303,Cheshire Bridge Road Highrise,"2170 Cheshire Bridge Road, N.E.",,Atlanta,GA,30324,,,,,
703,33.779936896450636,-84.29680485036693,Clairmont Oaks,441 Clairemont Avenue,,Decatur,GA,30030,,,,,
704,34.08842075411769,-84.52394987060177,Colbert Square,211 Woodpark Place,,Woodstock,GA,30188,,,,,
705,33.71101527619754,-84.3888026973795,Columbia Blackshear Senior Residences,"14 Meldon Avenue, SW",,Atlanta,GA,30315,,,,,
706,33.685099628897376,-84.49247781236147,Columbia Colony,2999 Continental Colony Parkway,,Atlanta,GA,30331,,,,,
707,33.79531131982111,-84.45071775007443,Columbia Heritage Senior Residences,1900 Perry Boulevard,,Atlanta,GA,30318,,,,,
708,33.71590914578479,-84.3954613113682,Columbia High Point,"220 Bowen Circle, SW",,Atlanta,GA,30315,,,,,
709,33.749495865286576,-84.47480486515951,Columbia Park Commons Apartments,180 Peyton Place SW,,Atlanta,GA,30311,,,,,
710,33.9542294962464,-84.54689401533204,Columbia Retreat at Dorsey Manor,118 Haynes Street,,Marietta,GA,30060,,,,,
711,33.758269352998525,-84.34665095357963,Columbia Senior Residences at Edgewood,"1281 Caroline Street, NE",,Atlanta,GA,30307,,,,,
712,33.740222077749934,-84.40259956233018,Columbia Senior Residences at Mechanicsville,"555 McDaniel Street, SW",,Atlanta,GA,30312,,,,,
713,33.74451281250708,-84.38343143008342,Columbia Senior Residences at MLK Village,"125 Logan Street, SE",,Atlanta,GA,30312,,,,,
714,33.95515850542989,-84.5469606681005,Columbia Tower at Dorsey Manor,212 Lemon Street,,Marietta,GA,30060,,,,,
715,33.77109846374577,-84.3764647208784,Cosby Spear Highrise,"355 North Avenue, N.E.",,Atlanta,GA,30308,,,,,
716,33.7897130778768,-84.28761023083172,Decatur Christian Towers,1438 Church Street,,Decatur,GA,30030,,,,,
717,34.069778526489074,-84.296343319328,Dogwood Square,555 Janis Lane,,Alpharetta,GA,30009,,,,,
718,33.74385607753226,-84.31437503019646,East Lake Highrise,"380 East Lake Boulevard, SE",,Atlanta,GA,30317,,,,,
719,33.90237351616628,-84.56231513293227,Edinborough Senior Apartments,"300 Pat Mell Road, S.W.",,Marietta,GA,30060,,,,,
720,33.73689311767754,-84.38151190043766,Georgia Avenue High Rise,"174 Georgia Avenue, S.E.",,Atlanta,GA,30312,,,,,
721,33.6519093308811,-84.20073665809798,Green Pastures Commons,5185 River Road,,Ellenwood,GA,30294,,,,,
722,33.426935571160584,-84.15134840780757,Grier Senior Manor,391 Old Griffin Road,,McDonough,GA,30253,,,,,
723,33.904813530597664,-84.11698988286446,Gwinnett Christian Terrace,414 Berkmar Way,,Lilburn,GA,30047,,,,,
724,33.808781047973696,-84.19344278052523,Hairston Lake Apartments,1023 North Hairston Road,,Stone Mountain,GA,30083,,,,,
725,33.98577297012338,-84.3508061803401,Hellenic Tower,8450 Roswell Road,,Atlanta,GA,30350,,,,,
726,33.44356338337923,-84.15949498403273,Heritage at McDonough,180 Bridges Road,,McDonough,GA,30253,,,,,
727,33.7338126256397,-84.40183329645674,Heritage Station,765 McDaniel Street,,Atlanta,GA,30310,,,,,
728,33.753574528967135,-84.47327868275516,Hightower Manor,"2610 Martin Luther King Jr. Drive, S.W.",,Atlanta,GA,30311,,,,,
729,34.09334476419201,-83.99874078578944,Huntington Court Apartments,4115 South Lee Street,,Buford,GA,30518,,,,,
730,33.77666249207243,-84.46531457576714,Johnnie B. Moore Towers I,2451 Donald Lee Hollowell Pkwy NW,,Atlanta,GA,30318,,,,,
731,33.77812579991138,-84.46432906151506,Johnnie B. Moore Towers II,840 Center Hill Avenue,,Atlanta,GA,30318,,,,,
732,33.781903442150394,-84.38229129415532,Juniper and Tenth Highrise,"150 Tenth Street, N.E.",,Atlanta,GA,30309,,,,,
733,33.695941416341896,-84.41416398519829,Lakewood Christian Manor,"2141 Springdale Road, S.W.",,Atlanta,GA,30315,,,,,
734,33.914408783721456,-84.55743421371716,Legacy at Walton Village,1570 Roberta Drive,,Marietta,GA,30008,,,,,
735,33.8566831830957,-84.34721958338076,Lenox Summit Apartments,2449 East Club Drive,,Atlanta,GA,30319,,,,,
736,33.894540195060586,-84.14492836864116,Lilburn Terrace,420 Hillcrest Road NW,,Lilburn,GA,30047,,,,,
737,33.77477915331173,-84.38291304894324,Lutheran Towers,"727 Juniper Street, N.E.",,Atlanta,GA,30308,,,,,
738,33.76414229591825,-84.3747726533357,Maggie Russell Towers,400 Ralph McGill Boulevard,,Atlanta,GA,30312,,,,,
739,33.82599506345434,-84.36259547904916,Marian Road Highrise,"760 Sidney Marcus Boulevard, N.E.",,Atlanta,GA,30324,,,,,
740,33.81816467975591,-84.4613361789905,Marietta Road Highrise,"2295 Marietta Road, N.W.",,Atlanta,GA,30318,,,,,
741,33.764851333947774,-84.44084565580147,National Association of Postal Federal Employees,359 West Lake Avenue,,Atlanta,GA,30318,,,,,
742,33.678162001602686,-84.42707862248608,Norman Berry Village,2840 Norman Berry Drive,,East Point,GA,30344,,,,,
743,33.749495865286576,-84.47480486515951,Park Commons Apartments,"180 Peyton Place, SW",,Atlanta,GA,30311,,,,,
744,33.77237924295895,-84.30278030687657,Park Trace Apartments,700 Atlanta Avenue,,Decatur,GA,30030,,,,,
745,33.77270559297534,-84.29448433093756,Philips Presbyterian Tower,218 East Trinity Place,,Decatur,GA,30030,,,,,
746,33.85277446951483,-84.3807667595002,Piedmont Road Highrise,"3601 Piedmont Road, N.E.",,Atlanta,GA,30305,,,,,
747,33.815878413369205,-84.39108939999545,Peachtree Road Highrise,"2240 Peachtree Road, NE",,Atlanta,GA,30309,,,,,
748,33.70985950392247,-84.44838313831639,QLS Haven Ltd,1840 Campbellton Road,,Atlanta,GA,30311,,,,,
749,33.6821116633991,-84.49364949025642,QLS Meadows,3060 Continental Colony Parkway SW,,Atlanta,GA,30331,,,,,
750,33.83365323855105,-84.07945937203425,Rainbow Heights,2165 Ross Road,,Snellville,GA,30039,,,,,
751,33.72641235321976,-84.51766242906865,QLS Villa,2040 Danforth Road SW,,Atlanta,GA,30331,,,,,
752,33.85501447017742,-84.5130711720127,Smyrna Towers,4000 South Cobb Drive,,Smyrna,GA,30080,,,,,
753,33.67545993580063,-84.5466649437339,St. Joseph Place,"2973 Butner Road, S.W.",,Atlanta,GA,30331,,,,,
754,33.840744499772654,-84.42747093041282,The Jewish Tower,"3160 Howell Mill Road, N.W.",,Atlanta,GA,30327,,,,,
755,33.71347166868446,-84.39237567975783,The Veranda at Carver,217 Thirkeld Avenue,,Atlanta,GA,30315,,,,,
756,33.74436147741653,-84.4190983592602,The Veranda at College Town,"372 Legacy Drive, SW",,Atlanta,GA,30310,,,,,
757,33.84066407192961,-84.42742294258676,The Zaban Tower,3156 Howell Mill Road NW,,Atlanta,GA,30327,,,,,
758,33.68380651513644,-84.4152695616271,Trinity Towers,"2611 Springdale Road, S.W.",,Atlanta,GA,30315,,,,,
759,33.95041843870911,-84.55283754585463,Walton Renaissance on Henderson,55 Henderson Street SW,,Marietta,GA,30064,,,,,
760,33.75537499763766,-84.37526689589362,Wheat Street Towers,"375 Auburn Avenue, N.E.",,Atlanta,GA,30312,,,,,
761,33.773693125371096,-84.35045814387502,William Booth Towers,"1125 Ponce de Leon Avenue, NE",,Atlanta,GA,30306,,,,,
762,33.613427414763635,-84.61097994406049,Woodbridge at Parkway Village,5151 Thompson Road,,Fairburn,GA,30213,,,,,
